resource_id;name;address;zip;Phone Number;url
3;A.J. Thomas: Medi-Cal Clinic;0615 E 14th St;94621;(510) 835-9610;https://westoaklandhealth.org/
13;City of Oakland - Human Services;1 Frank H Ogawa Plz;94612;(510) 238-3121;https://www.oaklandca.gov/departments/department-of-human-resources-management#services
14;Hoag Addiction Treatment Center - Newport Beach;1 Hoag Dr;92663;(888) 491-7124;https://www.hoagaddictiontreatment.com/?utm_source=google&utm_medium=local&utm_content=addiction-irvine
16;Sutter Roseville Medical Center - Birth Center;1 Medical Plaza Dr;95661;(916) 781-1517;https://www.sutterhealth.org/srmc/location-search?location-lat=38.7424319&location-lng=-121.2511908&location-auto=Roseville%2C+CA+95661&location-query=&location-area=Roseville%2C+CA+95661&location-distance=8.07&location-type=Birth+Centers&location-affiliate=Sutter+Roseville+Medical+Center
17;Sutter Roseville Wound Care;1 Medical Plaza Dr;95661;(916) 781-1386;https://www.sutterhealth.org/
18;Blue Oak Dental;1 Medical Plaza Dr;95661;(916) 786-6777;https://blueoakdentalgroup.com/
20;Kaiser Permanente - Addiction Medicine and Recovery Services;1 Quality Dr;95688;(707) 624-2830;https://thrive.kaiserpermanente.org/care-near-you/northern-california/napasolano/departments/amrs-introduction/
21;Kaiser Permanente - Pharmacy;1 Quality Dr;95688;(707) 624-2500;https://thrive.kaiserpermanente.org/care-near-you/northern-california/napasolano/departments/pharmacy/pharmacy-locations-hours-operation/
23;Walton Pediatrics & Medical Associates;1 Scripps Dr;95825;(916) 929-3456;https://www.waltonpediatrics.com/locations.html
24;Sacramento Family and Implant Dentistry;1 Scripps Dr;95825;(916) 999-4333;https://drjonahtabrizi.com/
25;Vacaville Town Square Library;1 Town Square Pl;95688;(866) 572-7587;https://solanolibrary.com/hours-and-locations/vacaville-town-square-library/
26;Leather by Libraries;1 University Dr;92866;(714) 532-7756;https://www.chapman.edu/library/index.aspx
27;San Francisco Municipal Transportation Agency;1 Van Ness Ave;94103;(415) 701-2311;https://www.sfmta.com/
28;Mayor's Office of Housing and Community Development;1 Van Ness Ave;94103;(415) 701-5500;https://sf.gov/
37;Sacramento Colon and Rectal Surgery Group;10 Sierra Gate Plz;95678;(916) 960-0466;http://scrs1.org/
40;Calabasas Disability Related Transportation;100 Civic Center Way;91302;(818) 224-1600;https://www.211la.org/resources/service/disability-related-transportation-72
48;Pleasant Hill Library - Contra Costa County Library;100 Gregory Ln;94523;(925) 646-6434;https://ccclib.org/locations/43/
49;San Lorenzo Family Help Center;100 Hacienda Ave;94580;(510) 361-0080;https://www.slzhelp.org/
50;Sutter Medical Foundation;100 Hospital Dr;94589;(707) 427-4900;https://www.sutterhealth.org
51;Snowline Hospice - Sacramento;100 Howe Ave;95825;(916) 817-2338;https://snowlinehospice.org/our-services/hospice-services
52;The Salvation Army - Roseville Corps;100 Lincoln St;95678;(916) 784-3382;https://roseville.salvationarmy.org
54;Self Care Counseling Marriage Family and Child Therapy;100 N Brand Blvd;91203;(213) 347-4740;https://selfcareca.com/
55;Diablo Valley Drug and Alcohol Services;100 Park Pl;94583;(925) 289-1430;https://www.diablovalleytreatment.com/?utm_source=gmb_auth
58;Eagle Vision Eye Care Optometric Group;100 S Harding Blvd;95678;(916) 783-8109;https://www.michaeljohnsonod.com/
59;Catholic Charities Clean Start Mobile Showers;100 Santa Rosa Ave;95404;(855) 707-HOST;https://homelessaction.net/showers-toilets/
61;Nelson Staffing;100 Smith Ranch Rd;94903;(415) 479-5101;https://nelsonjoBlue Shield.com/about/locations/san-rafael/?utm_source=googlemybusiness&utm_medium=organic&utm_campaign=mybusiness
65;New Hope Village, Inc - Barstow, CA;100 W Fredricks St;92311;(760) 256-1900;https://newhopevillageinc.org/
80;Kelly Services;1000 Lakes Dr;91790;(626) 919-6330;https://www.kellyservices.us/?utm_source=gmb-listing&utm_medium=organic&utm_campaign=all_both_local-listings&utm_content=westcovina-ca
87;Flash Gordon, MD;1000 S Eliseo Dr;94904;(415) 461-2262;https://www.rossvalleyMedi-Cal.com/
89;Placer County Human Services Rocklin;1000 Sunset Blvd;95765;(916) 784-6000;https://www.placer.ca.gov/
95;The Shower of Hope - Westlake - 10th and Parkview;1001 S Parkview St;90006;;http://theshowerofhope.org/resources/
97;Arbor View Dental Group;10014 Foothills Blvd;95747;(916) 780-2262;https://www.arborviewdentalgroup.com/
98;CARE Ambulance, Inc - Station 503;10018 Lower Azusa Rd;91731;(714) 288-3800;https://careambulance.net/contact-us.html
100;Springstowne Library;1003 Oakwood Ave;94591;(866) 572-7587;https://solanolibrary.com/hours-and-locations/vallejo-springstowne-library/
102;CVS Pharmacy - Store #9923 - Bidwell Street Location;1005 E Bidwell St;95630;(916) 983-5366;https://www.cvs.com/store-locator/cvs-pharmacy-address/1005+East+Bidwell+Street-Folsom-CA-95630/storeid=9923?WT.mc_id=LS_GOOGLE_FS_9923
103;Congregational Network Shelter Program;1005 E Las Tunas Blvd;91776;(626) 569-0991;https://www.familypromisesgv.org/about-us/
107;AKUA Mind & Body - Mental Health & Drug Addiction Treatment;10087 Terra Loma Dr;95670;(888) 834-2582;https://www.akuamindbody.com/
108;American MedEquip ;1009 Enterprise Way;95678;(916) 791-2266;https://www.americanmedequipstore.com/
110;Owl Western Pharmacy;1009 W San Bernardino Rd;91722;(626) 962-1061;http://owlrexall.com/contact/
111;New Life Program;101 6th St;95401;(707) 542-4817;https://www.srmission.org/ministries
118;St. Jude Medi-Cal Center Wound Care and Hyperbaric Center;101 E Valencia Mesa Dr;92835;(714) 992-3000;https://www.providence.org/locations/st-jude-Medi-Cal-center/wound-care-and-hyperbaric-center?y_source=1_MTQxNjY2NDItNzE1LWxvY2F0aW9uLmdvb2dsZV93ZWJzaXRlX292ZXJyaWRl#llaid=2366
122;Men's Mission - Redwood Gospel Mission;101 Sixth St;95401;(707) 542-4817;https://srmission.org/ministries
123;UCI Urology;101 The City Dr S;92868;(888) 264-1533;http://urology.uci.edu/index.shtml
124;UCI Health - Infectious Disease Services;101 The City Dr S;92868;(714) 456-7720;https://www.ucihealth.org/Medi-Cal-services/infectious-disease
126;Northbay Wound Care - Vacaville;1010 Nut Tree Rd;95687;(707) 624-7979;https://www.northbay.org/services/wound-care/index.cfm
128;Las Palmas Health Center;1010 W Las Palmas Ave;95363;(833) 850-3500;https://www.visitlch.org/
131;Kaiser Permanente - Roseville Medical Offices - Riverside Ophthalmology;1011 Riverside Ave;95678;(916) 784-4185;https://thrive.kaiserpermanente.org/care-near-you/northern-california/northvalley/departments/ophthalmology/
139;The Orthopedic Specialty of Northern California;1013 Galleria Blvd;95678;(916) 918-2952;https://toscnorcal.com/
142;California Human Development;1015 Center Dr;95403;(707) 523-1155;https://californiahumandevelopment.org/training-joBlue Shield/employment-services/
144;Renaissance Recovery;10175 Slater Ave;92708;(866) 330-9449;https://www.renaissancerecovery.com/
145;New Life Chapel - New Life Line Food Ministry;10184 Seventh Ave;92345;(760) 244-9050;http://frc.vesd.net/community_resources/emergency_food
149;Sutter Medical Foundation;1020 29th St;95816;(916) 455-3700;https://www.sutterhealth.org/find-doctor/dr-ginger-r-mcmullen?utm_source=yelp&utm_medium=social&utm_content=branded-url&utm_campaign=smf-yelp-doctors, https://www.sutterhealth.org/find-location/facility/sutter-medical-center
150;Sutter Medical Foundation;1020 29th St;95816;(916) 733-3792;https://www.sutterhealth.org/smf/find-doctor/dr-mirza-a-alikhan?is-physician=true&care-specialty=Dermatology&medical-group=sutter-medical-foundation
151;Sutter Medical Foundation - Bone Marrow Transplant Services;1020 29th St;95816;(916) 733-4400;https://www.sutterhealth.org/services/cancer/blood-stem-cell-transplant, https://www.sutterhealth.org/doctor-search/results?specialty=Hematology&location=Sacramento%2C+CA+95816&zip=95816&lat=38.58001840000001&lng=-121.4627576&medical-group=&health-plan=&health-plan-product=
157;Northbay Specialty Pharmacy - VacaValley Wellness Center;1020 Nut Tree Rd;95687;(707) 624-8072;https://www.northbay.org/services/specialty-pharmacy/index.cfm
158;Vacaville Cultural Center Library;1020 Ulatis Dr;95687;(866) 572-7587;https://solanolibrary.com/hours-and-locations/vacaville-cultural-center-library/
161;Oakland Public Library - 81st Avenue Branch;1021 81st Ave;94621;(510) 615-5812;http://www.oaklandlibrary.org/Branches/81st/81sthrs.html
164;Riverside Comprehensie Treatment Center;1021 W La Cadena Dr;92501;(951) 749-9240;https://www.acadialhealthcare.com
167;Gilead House;1024 7th St;94945;(415) 895-5575;https://www.gileadhouse.org/
168;Employment Services Agency;10240 Lakewood Blvd;90241;(562) 928-6600;https://www.esatemps.com
169;Health and Human Services;1025 Escobar St;94553;(877) 505-4630;https://www.contracosta.ca.gov/122/Health-and-Human-Services
170;MCCN La Puente Clinic;1025 N Willow Ave;91746;(818) 895-3100;https://mccn.org/la-puente
175;1 Method Center;10254 Bannockburn Dr;90064;(800) 270-1389;https://methodtreatment.com/
186;CVS Pharmacy - Store #3862;1030 Pleasant Grove Blvd;95678;(916) 780-4733;https://www.cvs.com/store-locator/cvs-pharmacy-address/1030+Pleasant+Grove+Boulevard-Roseville-CA-95678/storeid=3862?WT.mc_id=LS_GOOGLE_FS_3862
188;Community Medical Center, Inc;1031 Waterloo Rd;95205;(209) 940-5600;http://www.communityMedi-Calcenters.org/
193;Dr. Judith Friedman, MD;1036 Sir Francis Drake Blvd;94904;(415) 713-6745;https://www.drughelpcenters.com/physician/judith-friedman
200;Hathaway Recovery;1042 Belmont Abbey Ln;91711;(909) 971-3333;https://hishouserehab.com/
201;WellSpace Health - Rancho Cordova Community Health Center;10423 Old Placerville Rd;95827;(916) 737-5555;https://www.wellspacehealth.org/location/rancho-cordova-community-health-center
202;LA CADA Allen House;10425 Painter Ave;90670;(562) 906-2685;https://www.lacada.info/wp-content/uploads/2019/02/AllenHouseBroch.pdf
203;Lifeline Treatment Services;10429 International Blvd;94603;(510) 777-8448;https://www.americanhealthservices.org/oakland-california.html
215;CVS Pharmacy - Store #16833;10451 Fairway Dr;95678;(916) 780-2898;https://www.cvs.com/store-locator/cvs-pharmacy-address/10451+Fairway+Dr-Roseville-CA-95678/storeid=16833?WT.mc_id=LS_GOOGLE_RX_16833
218;Cordova Community Food Locker - St. John Vianney Parish;10497 Coloma Rd;95670;(916) 362-1385;https://sjvparish.com/serve/loaves-and-fishes
222;Aegis Treatment Centers;1050 N Garey Ave;91767;(909) 623-6391;https://www.mfirecovery.com/services
223;Envision Mental Health of Roseville;1050 Opportunity Dr;95678;(916) 625-6264;https://www.envisionmentalhealth.com/
233;310 Recovery, Inc - Outpatient Rehab;10533 Washington Blvd;90232;(310) 554-6875;https://310recovery.com/?UTM_source=GMB_310_iop&UTM_medium=organic
234;Food Finders, Inc;10539 Humbolt St;90720;(562) 283-1400;https://foodfinders.org/pantry-locator/
248;San Fernando Mental Health Center;10605 Balboa Blvd;91344;;http://www.sfvcc.org/
250;Wellness Retreat Recovery Center - Luxury Addiction Treatment in San Jose;10615 Crothers Rd;95127;(408) 539-6575;https://wellnessretreatrecovery.com/
251;Safeway Pharmacy - Folsom Bld Location;10635 Folsom Blvd;95670;(916) 364-4944;https://local.pharmacy.safeway.com/ca/rancho-cordova/10635-folsom-blvd.html
257;Ace Dental;1070 Pleasant Grv;95678;(916) 772-0111;https://acedentalroseville.com/#
266;Authentic Recovery Center Outpatient Treatment;10780 Santa Monica Blvd;90025;(866) 256-0051;https://www.arctreatment.com/?utm_source=google&utm_medium=local
270;Masada Homes;108 W Victoria St;90248;(310) 715-2020;https://masadahomes.org/
271;Merrill Center - Crisis Stabilization Unit;1080 Marina Village Pkwy;94501;(510) 337-7950;https://www.telecarecorp.com/contact
274;MENA Counseling Services;1084 N Hacienda Blvd;91744;(626) 678-4238;https://www.menacounseling.com/
275;HAART - Oakland;10850 Macarthur Blvd;94605;(510) 875-2300;http://www.haartoakland.org/
276;Food Bank Warriors of Christ;10891 Olive St;92316;(909) 953-5484;http://rugido.org/food-bank-bloomington-ca/
279;Food Distribution Center - First Methoist - Roseville;109 Washington Blvd;95678;(916) 783-3464;https://firstumcroseville.org/
280;Dental Office of Igor Babenkov, DDS;1090 Sunrise Ave;95661;(916) 772-2929;https://www.drbabenkov.com/
281;Food Help;10909 New St;90241;(562) 862-2438;http://downeyfirst.org
282;Casa Youth Shelter;10911 Reagan St;90720;(800) 914-2272;https://casayouthshelter.org/
283;ACCEPT Family Counseling;10918 Hesperia Rd;92345;(760) 949-2819;http://www.vbcounseling.com/index.html
284;Mindful Healing Mental Health Group, LLC;10927 Downey Ave;90241;(562) 450-3304;https://www.mindfulhealingmentalhealth.com
286;Walgreens Pharmacy;10955 W Magnolia Blvd;91601;(818) 760-3820;https://www.walgreens.com/findcare/services?ext=gmb
287;Mission Branch Library;1098 Lexington St;95050;(408) 615-2964;https://www.sclibrary.org/
289;Walgreens;10992 Magnolia Ave;92505;(951) 688-4154;https://www.walgreens.com/locator/walgreens-10992+magnolia+ave-riverside-ca-92505/id=13833
298;Jubilee Christian Center - Community Produce Program;11 Texas St;94509;(925) 757-5777;https://www.freefood.org
302;ACCESS - Institute for Psychological Services;110 Gough St;94102;(415) 861-5449;https://www.accessinst.org/
305;Downtown Library;1100 E St;94901;(415) 485-3323;https://srpubliclibrary.org/
310;Nirvana Drug and Alcohol;1100 Kansas Ave;95351;(209) 579-1151;https://nirvanatx.org/
311;ApexCare;1100 Melody Ln;95678;(916) 242-9111;https://apexcare.com/
312;ACCESS in Motion - Medical Transport;1100 Melody Ln;95678;(916) 660-3934;https://accessinmotion.com/index.php/transportation-service/rides
316;Alameda County Public Health Department;1100 San Leandro Blvd;94577;(510) 267-8000;https://acphd.org/
320;Ole Health;1101 B Gale Wilson Blvd;94533;(707) 419-8990;https://www.olehealth.org/who-we-are/whats-different-about-us/
321;Fort Help Mission, Inc;1101 Capp St;94110;(415) 821-1427;https://www.americanhealthservices.org/san-francisco-ca-94110.html
324;Walgreens Pharmacy;1101 Mchenry Ave;95350;(209) 577-8695;https://www.walgreens.com/
327;Addiction Free Recovery Services;1101 Standiford Ave;95350;(209) 579-3301;https://addictionfreemodesto.com/
328;Kelly Services;1101 Sylvan Ave;95350;(209) 577-4777;https://www.kellyservices.us/?utm_source=gmb-listing&utm_medium=organic&utm_campaign=all_both_local-listings&utm_content=modesto-ca
329;Safeway Medical Transportation, Inc;11026 Ventura Blvd;91604;(818) 764-8000;http://www.safewaymedtrans.com/
332;Aegis Treatment Centers - El Monte;11041 E Valley Blvd;91731;(626) 442-4177;https://pinnacletreatment.com/
333;Sacramento Dentistry Group;1105 E St;95814;(916) 538-6900;https://www.sacramentodentistry.com/
336;Dental Excellence of Greenhaven;1108 Corporate Way;95831;(916) 293-0504;https://www.sacramentosleepdentist.com/#!
337;Bee Medical Supply;11082 Coloma Rd;95670;(916) 638-2363;https://www.beemedicalsupplies.com/
342;Diablo Valley Drug and Alcohol Services;111 Deerwood Rd;94583;;https://findtreatment.gov/details/84cf0b4e18afa8986337ede3d2b38de82fc2a4b437e8dc19726c740389ea9e89?sAddr=37.7740147%2C%20-121.9892985
351;McCall Staffing Services;111 Pine St;94111;(415) 981-3400;http://www.mccallstaffing.com/
352;Certified Employment Group;111 Pine St;94111;(415) 433-3600;https://www.certifiedemployment.com/index.php
353;Uniqlo;111 Powell St;94108;;https://chargeitspot.com/
354;Kaiser Permanente - San Rafael Psychiatry and Addiction Medicine Services;111 Smith Ranch Rd;94903;(415) 491-3000;https://healthy.kaiserpermanente.org/northern-california/facilities/san-rafael-psychiatry-and-addiction-medicine-services-302081, https://www.drug-rehabs.org/rehab-center/Kaiser-Permanente-Medical-Group_San-Rafael_CA.htm
358;Kids Care Dental & Orthodontics;1110 Corporate Way;95831;(916) 391-2101;https://www.kidscaredental.com/
359;New Dental Images;1110 Corporate Way;95831;(916) 476-3608;https://www.newdentalimages.com/
363;Child and Adolescent Neurology Consultants;1111 Exposition Blvd;95815;(916) 649-9800;http://sacchildneurology.com/
364;Capital Nephrology Medical Group;1111 Exposition Blvd;95815;(916) 564-6232;https://www.cnmgonline.com/en/our-team
365;Liu Plastic Surgery;1111 Exposition Blvd;95815;(916) 678-4188;https://www.liuplasticsurgery.com/
366;Sacramento Ear, Nose & Throat;1111 Exposition Blvd;95815;(916) 736-3399;https://sacent.com/
367;AlternativesPC;1111 Howe Ave;95825;(916) 880-4040;http://alternativespc.org/
368;BAART Programs - Market;1111 Market St;94103;(415) 863-3883;https://baartprograms.com/
372;Downey City Library;11121 Brookshire Ave;90241;(562) 904-7360;https://www.downeylibrary.org
378;Capitol City Dental;1115 12th St;95814;(916) 443-6692;http://www.capitolcitydental.com/
379;Dr. Lulua Zulfikarali Bahrainwala, MD;1115 S Sunset Ave;91790;(626) 485-2190;https://doctor.webmd.com/doctor/lulua-bahrainwala-67ddbeb2-765b-4fab-9a6b-1ec51963ebec-overview
380;The Heights Treatment;11150 W Olympic Blvd;90064;(424) 835-6509;https://theheightstreatment.com/mentalhealthlp4/?gclid=CjwKCAjw2bmLBhBREiwAZ6ugo4S5spx4PnjHAJEFH4rrNQGUUJfxNZzbvsC1YJl7-lGwOWze1usJrxoCHXQQAvD_BwE
384;Advanced Hyperbaric Recovery;1118 Irwin St;94901;(415) 785-8652;https://hyperbaricoxygentherapy.com/home/about
386;Vacaville Family Health Services Center;1119 E Monte Vista Ave;95687;(707) 569-4640;https://www.solanocounty.com/depts/ph/fhs/locations_and_hours/vacaville_primary_care_clinic.asp
387;Adult Integrated Care Clinic - Vacaville;1119 E Monte Vista Ave;95688;(707) 469-4610;https://www.solanocounty.com/depts/mhs/service_locations/default.asp
388;Children's Mental Health Services;1119 E Monte Vista Ave;95688;(707) 469-4540;https://www.solanocounty.com/depts/mhs/service_locations/default.asp
389;Solano County Mental Health - Counseling;1119 E Monte Vista Ave;95688;(707) 469-4540;https://www.solanocounty.com/depts/mhs/default.asp
390;Homeless Outreach - Solano County Mental Health;1119 E Monte Vista Ave;95688;(707) 553-5592;https://www.solanocounty.com/documents/Housing.pdf
391;AKUA Mind & Body - Mental Health & Drug Addiction Treatment;1119 Sunflower Ave;92627;(888) 834-2582;https://www.akuamindbody.com/
398;Jerry L. Pettis Memorial VA Med Center - Substance Treatment and Recovery;11201 Benton St;92357;(909) 825-7084;https://www.lomalinda.va.gov/
400;United Indian Nations;1122 Davis St;94577;(510) 352-4510;https://unininc.org
401;Victor Valley Christian Church;11223 11th St;92345;(760) 244-4448;http://frc.vesd.net/community_resources/emergency_food
403;BARRT Programs - Oakland;1124 International Blvd;94606;(510) 533-0800;https://www.addictionresource.net/best-drug-rehab-centers/california/oakland/
404;BAART Programs - Oakland;1124 International Blvd;94606;(510) 533-0800;https://baartprograms.com/baart-14th-street/
414;Golden Valley Health Centers;1130 6th St;95354;(866) 682-4845;https://www.gvhc.org/
415;Wellpath Community Care Center;1130 Conroy Ln;95993;(530) 618-8178;https://wellpathcarecenters.com/our-services/
417;BAART Programs - Southeast;11315 S Atlantic Ave;90262;(310) 537-5883;https://baartprograms.com/baart-southeast/
419;Aegis Treatment Centers;1133 Coloma Way;95661;(916) 774-6647;https://pinnacletreatment.com/aegis/
420;Aegis Treatment Centers;1133 Coloma Way;95661;(916) 774-6647;https://pinnacletreatment.com/
422;Central WIC Office - Long Beach Health & Human Services;1133 Rhea St;90806;(562) 570-4000;http://www.longbeach.gov/health/
424;Office of Cynthia S. Chen-Joea and Luis Garcia Ayala;1135 S Sunset Ave;91790;(626) 732-8390;https://www.emanatehealth.org/doctors/providers/cynthia-chen-joea-do/
426;West Los Angeles Regional Library;11360 Santa Monica Blvd;90025;(310) 575-8323;https://www.lapl.org/branches/west-la
428;ClearVue Eye Care;114 N Sunrise Ave;95661;(916) 786-2212;https://www.clearvue.org/
432;St. Joseph's Hospital - Orange Wound Care Center;1140 W La Veta Ave;92868;(714) 744-8520;https://www.providence.org/locations/st-joseph-hospital-orange/wound-care-center?y_source=1_MTQwNjAxMzUtNzE1LWxvY2F0aW9uLmdvb2dsZV93ZWJzaXRlX292ZXJyaWRl#llaid=2267
433;MedMark Treatment Centers - Fairfield;1143 Missouri St;94533;(707) 435-9911;https://medmark.com/medmark-treatment-centers-fairfield/
434;MedMark Treatment Centers - Fairfield;1143 Missouri St;94533;(707) 435-9911;http://www.partnershiphp.org/providers/medi-cal/documents/provider%20directory/mcsolanoprodir.pdf
445;Long Beach Health & Human Services;1150 E 4th St;90802;(562) 570-3500;http://www.longbeach.gov/health/
446;Fairfield Civic Center Library;1150 Kentucky St;94533;(866) 572-7587;https://solanolibrary.com/hours-and-locations/fairfield-civic-center-library/
450;Dr. Girisha Mulhearn, DO;11500 Brookshire Ave;90241;(562) 904-5482;https://healthy.kaiserpermanente.org/southern-california/physicians/girisha-mulhearn-0369488
451;Southern California Alcohol and Drug Programs, Inc;11500 Paramount Blvd;90241;(562) 923-4545;http://www.scadpinc.org/residential_treatment0.aspx
452;Dr. Vincent Luong, DO;11501 Brookshire Ave;90241;(562) 904-5483;https://healthy.kaiserpermanente.org/southern-california/physicians/girisha-mulhearn-0369488
453;Unicare Community Health Center;1151 E Walnut St;91761;(909) 467-1425;https://unicarechc.org
454;Banana Republic in Westfield Galleria at Roseville;1151 Galleria Blvd;95678;(916) 788-4270;https://chargeitspot.com/locations/?location=banana-republic-roseville-ca
455;LA Community Health Project;1151 N Western Ave;90029;(213) 568-3542;http://chpla.org/
456;Downey Plaza Pharmacy;11525 Brookshire Ave;90241;(562) 861-5010;https://www.vitals.com/pharmacy/downey-plaza-pharmacy-11480-brookshire-ave-downey-ca
457;Westside Community Services;1153 Oak St;94117;(415) 431-9000;https://www.westside-health.org/
458;Diablo Valley Ranch;11540 Marsh Creek Rd;94517;(925) 672-5700;https://bibett.org/
460;Human Services in Auburn;11542 B Ave;95603;(530) 889-7610;https://www.placer.ca.gov/
464;Paul Binon, DDS, MSD, FAO and Associates;1158 Cirby Way;95661;(916) 786-6676;https://www.binondentalimplants.com/
466;American Family Dentistry;1160 Cirby Way;95661;(916) 789-8530;https://afdroseville.com/general-services/
467;General Medical Transportation;1160 N Central Ave;91202;(818) 731-3565;https://mygeneralmed.com/
469;Sacramento Public Library - Fair Oaks;11601 Fair Oaks Blvd;95628;(916) 264-2920;https://www.saclibrary.org/Locations/Fair-Oaks
470;VIda Life Ministries;11608 Cedar Ave;92316;(323) 823-4762;https://vidalifeministries.org/about-us/
471;Aurora Charter Oak Hospital - Adult Outpatient Programs;1161 E Covina Blvd;91724;(626) 966-1632;https://www.charteroakhospital.com/programs/charter-oak-intensive-outpatient-program
472;Aurora Charter Oak Hospital - Residential Treatment Center;1161 E Covina Blvd;91724;(626) 966-1632;https://www.charteroakhospital.com/recovery-center/charter-oak-residential-treatment-center
473;Hesperia Feed My Sheep Ministries - 1st Assembly of God;11616 Hesperia Rd;92345;(760) 244-3330;http://frc.vesd.net/community_resources/emergency_food
475;Calvary Chapel Adelanto - Grocery Assistance Program;11641 Rancho Rd;92301;(760) 530-5527;https://www.calvarychapelvv.com/
476;New Creation Alcohol and Drug Rehab;11646 Encanto Ln;92324;(888) 287-3256;https://newcreationtreatment.com
480;BAART Programs - Lynwood;11682 Atlantic Ave;90262;(310) 537-5883;https://baartprograms.com/baart-lynwood/
481;Asian American Drug Abuse Program;11682 Atlantic Ave;90262;(213) 440-0256;https://aadapinc.org/youth-and-family-programs-yfp/
483;Coastal Comprehensive Treatment Center;117 E Harry Bridges Blvd;90744;(323) 775-9437;https://www.southerncaliforniactc.com/
485;City Team - Rescue Mission;1174 Old Bayshore Hwy;95112;(408) 288-2153;https://www.santaclaraca.gov/services/emergency-services/warming-centers
487;Bay Area Clinical Associates - BACA San Jose;1175 Saratoga Ave;95129;(408) 996-7950;https://www.baca.org/
488;F&B Medical Transport, Inc;11751 Slauson Ave;90670;(562) 464-5938;http://fandbtransport.com/index.html
489;River of Life Foundation Food Pantry;1177 Laurelwood Rd;95054;(408) 567-0877;https://www.theriverflows.org/
491;Aegis Treatment Centers - Hesperia;11776 Mariposa Rd;92345;(761) 000-0000;https://pinnacletreatment.com/location/california/hesperia/aegis-treatment-centers-hesperia/
492;Aegis Treatment Centers;11776 Mariposa Rd;92345;(760) 956-2462;https://pinnacletreatment.com/location/california/hesperia/aegis-treatment-centers-hesperia/
493;The Gate Church;11783 Amethyst Rd;92392;(760) 949-8979;http://frc.vesd.net/community_resources/emergency_food
494;Sutter Auburn Faith Hospital - Gastroenterology;11795 Education St;95602;(530) 886-6800;https://www.sutterhealth.org/find-doctor/dr-michael-s-mahoney
498;Bischoff Medical Supplies - Roseville Location;118 Sunrise Ave;95661;(916) 780-1062;http://bischoffmedical.com/
499;Ruby's Place Hayward;1180 B St;94541;(510) 581-5626;https://www.shelterlist.com/details/rubys-place-hayward
506;Orange County Food Bank;11870 Monarch St;92841;(714) 897-6670;https://www.capoc.org/oc-food-bank/
509;Marin Therapy and Counseling;119 Ward St;94939;(415) 261-7143;https://www.marintherapyandcounseling.com/
510;Accredited Counseling & Intervention Services, Inc;1190 Park Ave;95126;(888) 427-8689;https://www.counselingandintervention.com/
511;BAART Programs - Southeast;11900 Avalon Blvd;90061;(323) 242-0500;https://baartprograms.com/baart-southeast/
513;Recovery & Resilience Centers;1199 Bush St;94109;(925) 922-5388;https://www.randrcenters.com/about
519;Marin County - Health & Human Services;120 N Redwood Dr;94903;(877) 410-8817;https://www.marinhhs.org/human-services
535;Suitable Staffing Solutions, Inc;1200 N Hacienda Blvd;91744;(626) 716-9002;https://suitablestaffing.com/index.html
536;Children & Youth Services;1200 N Main St;92701;(714) 480-6600;http://ocgov.com/
541;Golden Valley Health Centers;1200 W Main St;95380;(866) 682-4842;https://www.gvhc.org/
544;Hollydale Library;12000 Garfield Ave;90280;(562) 634-0156;https://lacountylibrary.org/hollydale-library/
546;Christian Body Life Fellowship;1201 Marshall Rd;95687;(707) 452-1211;https://www.solanocounty.com/documents/Housing.pdf
547;CVS Pharmacy;1201 W Main St;95366;(209) 599-4686;https://www.cvs.com/
552;Support Systems Homes, Inc;1202 Meridian Ave;95125;(408) 370-9688;https://supportsystemshomes.com/
553;Employment Services;1202 Morena Blvd;92110;(619) 276-8071;https://www.latterdaysaintjoBlue Shield.org/ers/ct/?lang=eng
557;Food Distribution Center - Serve the People;1206 17th St;92701;(714) 352-2911;https://serve-the-people.com/what-we-do/foodpantry.html
559;The Living Room;1207 Cleveland Ave;95401;(707) 579-0138;https://thelivingroomsc.org/
560;Phoenix House - Orange County;1207 E Fruit St;92701;(714) 953-9373;https://phoenixhouseca.org/
563;Horizon Personnel Services;1208-B W Francisquito Ave;91790;(626) 380-9799;https://horizonpersonnelservices.com/
565;Rehabilitation Department;1209 Woodrow Ave;95350;(209) 576-6220;https://www.dor.ca.gov/
566;St. Anthony's Father Alfred Center;121 Golden Gate Ave;94102;(415) 592-2831;https://www.stanthonysf.org/
569;Downey Family Medi-Cal Center;12113 Woodruff Ave;90241;(562) 803-1430;https://fhccgla.com/about/meet-our-team/Medi-Cal-providers/
570;Sierra Pregnancy & Health;1212 Coloma Way;95661;(916) 624-8990;https://sierraph.org/
571;San Joaquin County Adult Mental Health Services;1212 N California St;95202;(209) 468-3760;https://www.sjcbhs.org/
572;Al Rhama Food Bank;12125 Day St;92557;(951) 378-3033;https://uplift22.com
576;Altamed ADHC - Downey;12130 Paramount Blvd;90242;(562) 923-9414;https://www.altamed.org
577;Enki Health Services, Inc;1215 W Covina Pkwy;91790;(626) 974-0770;http://www.ehrs.com/
579;Brotherly Medical Transportation, LLC;12173 10th St;92399;(877) 268-6054;https://brotherlyMedi-Cal.com/services/
583;H. Douglas Cooper, MD;1220 25th St;95816;(916) 306-8123;https://www.nvisioncenters.com/locations/sacramento/h-douglas-cooper/
586;Second Harvest of the Greater Valley;1220 Vanderbilt Cir;95337;(209) 239-2091;https://www.localfoodbank.org/
598;Health and Human Services Department;1221 Nevin Ave;94801;(510) 970-1900;https://www.contracosta.ca.gov/122/Health-and-Human-Services
599;TLC in Home Care;1221 Pleasant Grove Blvd;95678;(916) 742-1110;https://tlcinhomecaresac.com/
600;Charles M. Holzner, MD;12214 Lakewood Blvd;90242;(562) 862-2775;https://www.pihhealth.org/find-a-doctor/physician-profile-advanced/charles-holzner/
602;Cerritos Crossroads Multinational Church of the Nazarene;12229 Del Amo Blvd;90703;(562) 809-4143;https://www.cerritosnazarene.com
606;High Desert - Second Chance - Open Market;12277 Mariposa Rd;92395;;https://jaain8.wixsite.com/second-chance/events
608;PIH Health Wound Healing Washington Medical Office Building;12291 Washington Blvd;90606;(562) 789-5462;https://www.pihhealth.org/health-services/wound/?utm_source=PIH-WHC-WHITTIER&utm_campaign=Local-Listings&utm_medium=Google-My-Business
609;Evolve Treatment Centers - Walnut Creek;123 Brodia Way;94598;(925) 266-5300;https://evolvetreatment.com/locations/walnut-creek/?utm_source=google&utm_medium=local&utm_campaign=walnutcreek
615;Kids Dental & Orthodontics Roseville;1230 Roseville Pkwy;95678;(916) 780-6300;https://www.kidscaredental.com/
616;Caminar Resource Connect - Solano;1234 Empire St;94533;(707) 652-7311;https://www.solanocounty.com/documents/Housing.pdf
617;LA County - Health Services;12340 Woodruff Ave;90241;(562) 803-4049;https://dhs.lacounty.gov
618;Aegis Treatment Centers;1235 Mchenry Ave;95350;(209) 239-9605;https://pinnacletreatment.com/
619;County Adult Assistance Program General Assistance Office;1235 Mission St;94103;(415) 558-1000;https://sf.gov/
627;Gonzalez Pharmacy;1240 N Hacienda Blvd;91744;(626) 918-4300;https://gonzalez-pharmacy.business.site/?utm_source=gmb&utm_medium=referral
629;Manor Branch Library;1241 Manor Blvd;94579;(510) 577-7970;http://www.sanleandro.org/depts/library/default.asp
630;Community Employment Services;1242 Market St;94102;(415) 503-4460;http://sfcesworks.org/
631;Victory Christian Center;12421 Hesperia Rd;92395;(760) 951-8784;http://frc.vesd.net/community_resources/emergency_food
633;First Day;12426 Whittier Blvd;90602;(562) 945-4304;https://www.whittierfirstday.org/
634;SAY - The Dr. James E. Coffee Teen Shelter for Runaway and Homeless Youth;1243 Ripley St;95401;(888) 729-0012;https://www.saysc.org/housing/
635;West Valley Branch Library;1243 San Tomas Aquino Rd;95117;(408) 244-4747;https://www.sjpl.org/west-valley
636;Los Angeles County Department of Health Services;12440 Imperial Hwy;90650;(562) 345-6800;http://publichealth.lacounty.gov
639;Oakland Public Library;125 14th St;94612;(510) 238-3134;http://www.oaklandlibrary.org/
640;Golden State Dental;125 Ascot Dr;95661;(916) 786-7070;https://www.goldenstatedentalco.com/
641;O'Connor Wound Care Clinic;125 Ciro Ave;95128;(408) 947-2804;https://oconnor.verity.org/OCH/woundCare.php
642;Catholic Social Services of Solano County;125 Corporate Pl;94590;(707) 664-8909;http://www.partnershiphp.org/Community/Documents/Solano/Solano_MentalHealth.pdf
643;Catholic Social Services;125 Corporate Pl;94590;(707) 644-8909;https://ccyoso.org
644;Catholic Social Services - General Counseling;125 Corporate Pl;94590;(707) 644-8909;https://www.1degree.org/org/catholic-social-service-of-solano-county
649;Aegis Treatment Centers;125 W F St;91762;(909) 986-4550;https://riversiderecovery.org/
651;Dr. Grant Williams;1250 S Sunset Ave;91790;(877) 331-3878;https://www.sharecare.com/doctor/dr-grant-p-williams
652;San Gabriel Medical Pharmacy;1250 S Sunset Ave;91790;(626) 960-8696;https://www.sangabrielmedicalpharmacy.com/
657;A Plus Dental Care;1258 Coloma Way;95661;(916) 784-1144;https://www.aplusdentalcaregroup.com/dentist-near-me/roseville-dentist/11220
661;Barn Life Recovery;126 E 16th St;92627;(949) 229-6853;https://www.barnliferecovery.com/
662;Tenderloin Housing Clinic;126 Hyde St;94102;(415) 885-3286;https://www.thclinic.org/
667;Thomas House Temporary Shelter;12601 Morningside Ave;92843;(714) 554-0357;https://www.thomashouseshelter.org/
668;SafeQuest Solano;1261 Travis Blvd;94533;(707) 422-7345;https://www.safequestsolano.org/contact
669;Select - An EmployBridge Company;1261 Travis Blvd;94533;(707) 492-1217;https://www.select.com/locations/fairfield-ca/80134-7228
670;California Vein & Wound Center - Fairfield;1261 Travis Blvd;94533;(707) 252-4955;https://treatyourlegs.com/our-offices/fairfield-office/
673;Moreno Valley Business and Employment Resource Center;12625 Frederick St;92553;(951) 413-3920;https://www.morenovalleybusiness.com/workforce/
674;County of Riverside - Public Services;12625 Heacock St;92553;(877) 410-8827;http://dpss.co.riverside.ca.us/office-location/moreno-04
675;Victor Valley Behavioral Health;12625 Hesperia Rd;92395;(760) 995-8300;https://wp.sbcounty.gov/dbh/mental-health-services/general/outpatient-clinics/
676;Family Vision Care & Contact Lenses Optometric Center;1263 Pleasant Grove Blvd;95747;(916) 773-1195;https://rosevilleeyedocs.com/
677;Dental Designs;1263 Pleasant Grove Blvd;95747;(916) 243-6360;https://www.dental-designs.com/
682;Home Stretch;1271 Washington Ave;94577;(510) 473-8643;https://everyonehome.org/our-work/home-stretch/
683;East Sac Dental;1273 32nd St;95816;(916) 452-7874;https://www.eastsacdentalcare.com/
686;Garden Grove Courtyard Center;12732 Main St;92840;(714) 741-5262;http://www.ci.garden-grove.ca.us/commserv/rentalfacilities
690;As One Transitional Living;12759 Petaluma Rd;92392;(760) 508-8998;https://www.homelessshelterdirectory.org/cgi-bin/id/city.cgi?city=Victorville&state=CA
693;Walgreens Pharmacy;128 S State College Blvd;92806;(714) 778-2519;https://www.walgreens.com/findcare/services?ext=gmb
694;Kaiser Permanente;12815 Heacock St;92553;(866) 984-7483;https://healthy.kaiserpermanente.org/doctors-locations
695;Upward Bound House;12841 Washington Blvd;90066;(310) 458-7779;https://upwardboundhouse.org/our-work/get-help-now/
697;Healthy Partnerships;1286 Callen St;95688;(707) 355-4059;https://www.caminar.org/healthy-partnerships/
698;Valley Community Counseling Clinic;129 E Center St;95336;(209) 239-5553;https://www.valleycommunitycounselingservices.org/services/
702;Apple Valley Church of the Nazarene;12935 Central Rd;92308;(760) 247-8433;http://frc.vesd.net/community_resources/emergency_food
703;Ujima Family Recovery Services - Ujima West;12960 San Pablo Ave;94805;(510) 215-2280;https://ujimafamily.org/
704;City Team - San Jose;1297 N 13th St;95112;(650) 779-4635;http://dignityonwheels.org/
705;LGTC Group - Sunnyvale Clinic;1298 Kifer Rd;94086;(800) 913-2615;https://www.lgtcgroup.com/
707;Pinnacle Mental Wellness Group, Inc;130 E Leland Rd;94565;(925) 384-3997;http://www.pinnaclementalwellness.com/
708;Compass Behavioral Health;130 S B St;92780;(888) 265-9114;https://compassbehavioralhealth.com/
709;PURA Vida Recovery Services;130 Stony Point Rd;95401;(707) 879-8432;https://www.pvrecovery.com/treatment
711;Lucky Pharmacy;1300 Fairmont Dr;94578;(510) 276-8106;https://www.luckysupermarkets.com/?utm_source=google&utm_medium=organic&utm_campaign=maps
716;Chartwell Staffing Solutions;1300 Oliver Rd;94533;(707) 425-7200;https://chartwellstaff.com/fairfield-ca-staffing-agency/
717;AltaMed Medical Group - West Covina;1300 S Sunset Ave;91790;(888) 499-9303;https://www.altamed.org/find/facility?page=3
724;Baron HR;1300 W Francisquito Ave;91790;(626) 593-8800;http://www.baronhr.com/
725;Eggleston Behavioral Health & Family Services;13001 Ramona Blvd;91706;(626) 214-9016;https://www.egglestonyouthcenter.org/
726;Eggleston Substance Abuse and Education Program;13001 Ramona Blvd;91706;(626) 470-8107;https://www.egglestonyouthcenter.org/addiction/
727;Eggleston Youth Centers, Inc;13001 Ramona Blvd;91706;(626) 470-8107;https://www.egglestonyouthcenter.org/addiction/
729;Walgreens Pharmacy;1301 Market St;94103;(415) 861-4010;https://www.walgreens.com/locator/walgreens-498+castro+st-san+francisco-ca-94114/id=1330
731;Pacific Medical - Prosthetics & Orthotics;1301 Secret Ravine Pkwy;95661;(916) 788-0530;https://pacmedicalop.com/locations/locations2/view/329
732;Michael J. Huang, MD - Family Practice & Aesthetics;1301 Secret Ravine Pkwy;95661;(916) 472-6454;https://www.huangmdoffice.com/
734;Shepherd's Pantry - Baldwin Park Distribution Center;13020 Francisquito Ave;91706;(626) 671-0090;https://www.shepherdspantry.com
736;Contra Costa County - Social Services;1305 Macdonald Ave;94801;(510) 412-3000;https://www.contracosta.ca.gov/
737;KBC Staffing;1305 Macdonald Ave;94801;(209) 374-3248;https://kbcstaffing.com
738;Pirate Staffing;13050 Valley Blvd;91746;(626) 333-0110;https://www.piratestaffing.com/
739;Walgreens Pharmacy;13052 Newport Ave;92780;(714) 505-6021;https://www.walgreens.com/findcare/services?ext=gmb
741;The Meadows Outpatient Center - Silicon Valley;1309 S Mary Ave;94087;(877) 927-8006;https://themeadowsiop.com/
746;Community Medical Center, Inc - Dixon;131 W A St;95620;(707) 635-1600;http://www.communityMedi-Calcenters.org/Locations/Dixon
750;MedMark Treatment Centers - Fresno;1310 M St;93721;(559) 264-2700;https://medmark.com/medmark-treatment-centers-fresno/
752;Lighthouse Treatment Center: Alcohol & Drug Rehab Orange County;1310 W Pearl St;92801;(866) 811-3656;https://lighthousetreatment.com/
753;Southern California Kidney Consultants, Inc;1310 W Stewart Dr;92868;(714) 836-4204;https://socalkidneyonline.org
754;BAART Programs - Richmond Addiction Research and Treatment, Inc;1313 Cutting Blvd;94804;(510) 232-0874;https://baartprograms.com/baart-richmond/
755;BAART Programs - Richmond;1313 Cutting Blvd;94804;(510) 232-0874;https://baartprograms.com/baart-richmond/
756;Bridges to Life Detox & Recovery;1313 N Brookhurst St;92801;(866) 702-5833;https://bridgestolifedetox.com/?utm_source=google&utm_medium=website%20button&utm_content=anaheim
757;Chino Neighborhood House;13130 6th St;91710;(909) 628-5608;https://chinoneighborhoodhouse.com/
758;Office of Alex J. Mercado, DDS;1315 Alhambra Blvd;95816;(916) 448-5458;https://www.sacsmiles.com/
759;Daby Dentist;1315 Alhambra Blvd;95816;(916) 443-8908;https://www.dabydental.com/
760;Endodontic Specialty Group;1315 Alhambra Blvd;95816;(916) 736-3101;http://www.sacramentorootcanal.com/template.jsp?doc=asbarak&c=Home&wiz=0&page=Home
763;National Medical Transportation, Inc;13181 Crossroads Pkwy S;91746;(844) 529-7275;https://www.nationalmedtransportation.com/
769;Jovenes, Inc - La Posada Shelter;1320 Pleasant Ave;90033;(323) 260-8035;https://jovenesinc.org/
770;Women's & Children's Crisis Shelter;13203 Hadley St;90603;(562) 945-3939;https://wccshope.org/
771;Accurate Personnel;13204 Philadelphia Ave;92337;(909) 301-3543;https://www.accurateusa.com/
772;Friendship Park;1321 N 12th St;95811;(916) 443-7378;www.sacfishes.org/programs/friendshippark
773;Recovery Beach Addiction Treatment Centers;13212 Chapman Ave;92840;(855) 964-4405;https://www.90210recovery.com/
774;Holy Innocents Catholic Church;1323 El Evado Rd;92392;(760) 955-6010;http://frc.vesd.net/community_resources/emergency_food
775;Walgreens Pharmacy;13231 Victory Blvd;91401;(818) 623-9358;https://www.walgreens.com/findcare/services?ext=gmb
782;America's Job Center of California Riverside;1325 Spruce St;92507;(951) 955-3100;https://www.careeronestop.org/LocalHelp/AmericanJobCenters/find-american-job-centers-details.aspx?location=Moreno%20Valley,%20%20CA&radius=25&ct=0&y=0&w=0&e=0&sortcolumns=Distance&sortdirections=ASC&curPage=1&pagesize=10&centerID=75808&dist=7.3&locationSelected=0&persist=true
784;Heart of Gold Medical Transport, Inc;1329 Howe Ave;95825;(916) 550-5326;https://www.heartofgoldmedtransport.com/
786;Gateway Pharmacy;1330 Gateway Blvd;94533;(707) 422-0500;https://www.mygnp.com/pharmacies/gateway-pharmacy-fairfield-ca-94533/?utm_source=google&utm_medium=local&utm_campaign=localmaps&utm_content=5641938
803;Saint John of God Healthcare Services;13333 Palmdale Rd;92392;(760) 241-4917;http://www.stjoghcs.org/withdraw-management-.html
805;Diamond Youth Shelter - Larkin Street Youth Services - San Francisco, CA;134 Golden Gate Ave;94102;(415) 673-0911;https://larkinstreetyouth.org/get-help/#section-housing
809;Dominic Savio Church;13400 Bellflower Blvd;90706;(562) 920-7796;https://saintdominicsavio.org
813;East San Gabriel Valley Coalition for the Homeless;1345 Turnbull Canyon Rd;91745;(626) 333-7204;https://www.esgvch.org/
819;Richmond Public Library - West Side Branch;135 Washington Ave;94801;(510) 620-6567;http://www.ci.richmond.ca.us/3787/West-Side-Branch-Library
821;CVS Pharmacy - Store #9823 - Florin Road Location;1350 Florin Rd;95831;(916) 392-5184;https://www.cvs.com/store-locator/cvs-pharmacy-address/1350+Florin+Road-Sacramento-CA-95831/storeid=9823?WT.mc_id=LS_GOOGLE_FS_9823
823;Isabelle King, MD;1350 S Eliseo Dr;94904;(415) 925-7450;https://www.mymarinhealth.org/find-a-provider/isabelle-king-md/
824;David & Margaret Youth and Family Services;1350 Third St;91750;;https://www.davidandmargaret.org/what-we-do/compass-point/permanent-supportive-housing.html
826;Loaves and Fishes;1351 N C St;95811;(916) 446-0874;https://sacloaves.org
827;Good Samaritan Transport, LLC;13525 Somerset St;92344;(760) 680-8154;https://goodsamtransports.com/
828;Rite Aid Pharmacy;1355 Macarthur Blvd;94577;(510) 352-3677;https://www.riteaid.com/locations/ca/san-leandro/1355-macarthur-boulevard.html
830;California Vein & Wound Center - Vacaville;1360 Burton Dr;95687;(707) 252-4955;https://treatyourlegs.com/our-offices/vacaville-office/
831;Burning Hearts Ministry;13600 Pawnee Rd;92307;(760) 493-0435;http://frc.vesd.net/community_resources/emergency_food
832;Walgreens Pharmacy;1363 Divisadero St;94115;(415) 931-9974;https://www.walgreens.com/locator/walgreens-498+castro+st-san+francisco-ca-94114/id=1329
839;Cottonwood Golf Center;13671 Frederick St;92552;(951) 413-3290;http://www.moval.org/cool/
844;San Pablo Library - Contra Costa County Library;13751 San Pablo Ave;94806;(510) 374-3998;https://ccclib.org/locations/24/
846;Harvest Community Church;1376 Blue Oaks Blvd;95678;(916) 771-4781;https://www.harvestfamily.net/
849;The Davis Group Counseling & Wellness Services - Roseville Office;1380 Lead Hill Blvd;95661;(916) 740-6424;http://thedavisgroup.org/
850;Certified Employment Group;1380 Lead Hill Blvd;95661;(916) 771-6886;www.certifiedemployment.com
851;Rite Aid Pharmacy;13803 Foothill Blvd;91342;(818) 367-8103;https://www.riteaid.com/pharmacy/services/virtual-care
853;Medical Arts Pharmacy;13847 E 14th St;94578;(510) 357-1881;http://www.Medi-Calartspharmrx.com/
854;San Bernardino County Transitional Assistance Department - CalWORKs;13886 Central Rd;92307;(909) 388-0245;https://wp.sbcounty.gov/tad/programs/calworks/
861;Bright Care Pharmacy;140 N Orange Ave;91790;(626) 251-1630;https://bright-care-pharmacy.business.site/
865;Roseville Walmart Supercenter - #4202 Pharmacy;1400 Lead Hill Blvd;95661;(916) 724-0012;https://www.walmart.com/store/4202-roseville-ca
866;First Step Communities;1400 N A St;95811;(916) 822-4900;https://www.firststepcommunities.org/
867;Alto Pharmacy;1400 Tennessee St;94107;(800) 874-5881;https://www.alto.com/
877;City of Richmond Transportation Services;1404 Macdonald Ave;94801;(510) 620-6869;http://www.ci.richmond.ca.us/3329/Parking-Management-Services
880;High Desert - Homeless Services;14049 Amargosa Rd;92392;;https://www.highdeserthomelessservices.org/
882;De Anza Community and Teen Center;1405 S Fern St;91761;(909) 395-2030;https://211sb.org/wp-content/uploads/2018/06/Cool-Places-to-Go-2021-Updt-6-18-21.pdf
885;Kemp Individual & Family Therapy, Inc;14075 Hesperia Rd;92395;(760) 810-0000;https://www.kemptherapyhd.com/
886;J. Cole Recovery Homes, Inc;1408 A St;94509;(925) 978-2873;http://www.thecolehouse.org/index.html
888;La Ventana Treatment Programs - Primary Mental Health, Trauma Recovery Treatment;1408 Thousand Oaks Blvd;91362;(833) 239-3552;https://laventanatreatment.com/
890;Target;141 Lakewood Center Mall;90712;(562) 894-0019;https://www.target.com/sl/lakewood-center-mall/1409
891;Bonita House Mental Health;1410 Bonita Ave;94709;(510) 526-4765;https://bonitahouse.org
893;Partners Personnel;14101 Francisquito Ave;91706;(626) 213-0435;https://www.partnerspersonnel.com/
894;Walgreens Pharmacy;14102 Ramona Blvd;91706;(626) 337-1082;https://www.walgreens.com/locator/walgreens-14102+ramona+blvd-baldwin+park-ca-91706/id=7654
898;Roseville Dermatology;1412 Blue Oaks Blvd;95747;(916) 784-7546;https://www.rosevillederm.com/
900;ASC Staffing Group, LLC;14135 Francisquito Ave;91706;(626) 472-0001;https://www.ascstaffinggroup.com/
901;Partners Personnel Hesperia;14135 Main St;92345;(760) 981-7272;https://www.partnerspersonnel.com/
902;Hesperia Main Street Offices;14135 Main St;92345;(866) 205-3595;https://healthy.kaiserpermanente.org/southern-california/facilities/hesperia-main-street-offices-338553
909;Shepherd's Pantry - Irwindale Distribution Center;1418 Arrow Hwy;91706;(626) 305-0392;https://www.shepherdspantry.com
910;OS4 Labor Fontana;14189 Foothill Blvd;92335;(909) 476-8326;https://www.os4labor.com/
914;Remedy Rx Pharmacy & Compounding;1420 E Roseville Pkwy;95661;(916) 740-1600;https://www.myremedyrx.com/
915;Enhanced Dental Concepts;1420 E Roseville Pkwy;95661;(916) 791-2907;https://enhanceddentalconcepts.com/
916;West End Family Counseling Services;1420 Milliken Ave;91761;(909) 983-2020;https://www.wefcs.org/opportunities
917;Eden Medical Center - Outpatient Rehab Facility;14207 E 14th St;94578;(510) 727-2800;https://sutterhealth.org
919;Next Move Homeless Services;1422 C St;95814;(916) 443-2646;https://ha.saccounty.net/Pages/default.aspx
928;Oakland Public Library - Elmhurst Branch;1427 88th Ave;94621;(510) 615-5727;http://www.oaklandlibrary.org/locations/elmhurst-branch
929;Forward Recovery Solutions, LLC;1428 S Roxbury Dr;90035;(310) 945-0344;https://forwardrecovery.com/
930;Miyasaki Dental;1428 U St;95818;(916) 573-0795;https://www.miyasakidental.com/
931;Desert Bloom Recovery, LLC;14286 California Ave;92392;;https://www.desertbloomrecovery.com/
932;Thrive N' Beat Addiction;14286 California Ave;92392;(888) 226-8344;https://thrivenbeataddiction.com/inpatient-residential/
933;Alhambra Dental Plaza;1430 Alhambra Blvd;95816;(916) 455-3247;https://www.alhambradentalplaza.com/#
951;Rite Care Pharmacy;1433 N Hollenbeck Ave;91722;(626) 251-1640;https://www.yelp.com/biz/rite-care-pharmacy-covina
952;PeopleReady;14344 Main St;92345;(760) 948-4226;https://www.peopleready.com/locations/hesperia-ca-2158?utm_campaign=gmb&utm_medium=organic&utm_source=google
953;Panorama City Branch Library;14345 Roscoe Blvd;91402;(818) 894-4071;http://www.lapl.org/branches/panorama-city
954;Gregory Owyang, DDS and Deborah Owyang, DDS;1435 Alhambra Blvd;95816;(916) 454-2919;http://www.drsowyang.com/
965;Select Staffing;14350 Bear Valley Rd;92392;(760) 245-1460;https://www.select.com/locations/victorville-ca/80056-5942
966;OC Library - Heritage Park Regional Branch;14361 Yale Ave;92604;(949) 936-4040;https://ocpl.org/libraries/irvine-heritage-park
967;Labor Finders Victorville;14368 St Andrews Dr;92395;(760) 951-7800;https://www.laborfinders.com/
968;Center Staffing;1437 N Hacienda Blvd;91744;(626) 606-5111;https://centerstaff.net/
972;Human Services Agency of San Francisco;1440 Harrison St;94103;(855) 355-5757;https://www.sfhsa.org/
973;Solano Employment Connections;1440 Marin St;94590;(707) 648-4024;https://www.solanoemployment.org
975;Milpitas Food Pantry;1440 S Main St;95035;(408) 946-5564;https://milpitasfoodpantry.org
976;Baldwin Park Housing Authority;14403 Pacific Ave;91706;(626) 960-4011;https://www.baldwinpark.com/section-8
977;California Eye Associates;1441 Avocado Ave;92660;(949) 760-9007;https://www.drkurteeva.com/contact
979;Roseville Dental Group;1441 Secret Ravine Pkwy;95661;(916) 560-1964;https://www.rosevilledental.com/
980;Serenity Oral Surgery and Implant Center;1441 Secret Ravine Pkwy;95661;(916) 787-1515;https://www.serenityoralsurgery.com/
981;One Community Health - Arden-Arcade Campus;1442 Ethan Way;95825;(916) 443-3299;https://onecommunityhealth.com/locations/arden-arcade-campus/
985;Royal Ambulance;14472 Wick Blvd;94577;(510) 568-6161;https://www.countyoffice.org/royal-ambulance-san-leandro-ca-db3/
988;Aegis Treatment Centers;1450 Bessie Ave;95376;(209) 239-9601;https://pinnacletreatment.com/
990;AppleOne Employment Services;1450 Frazee Rd;92108;(619) 849-5818;https://www.appleone.com
991;Aegis Treatment Centers;1450 N Lake Ave;91104;(626) 794-1161;https://pinnacletreatment.com/
992;Health Services Administration;1450 Neotomas Ave;95405;(707) 565-4700;https://sonomacounty.ca.gov/Health-Services/
994;La Vida Counseling Center;1451 Quail St;92660;(714) 883-9156;https://www.lavidacounselingcenter.com/
995;American River Home Care;1451 River Park Dr;95815;(916) 209-4400;http://arhcsac.com/
996;Fresenius Kidney Care - Secret Ravine Parkway, Roseville;1451 Secret Ravine Pkwy;95661;(916) 773-4000;https://www.freseniuskidneycare.com/dialysis-centers/california/7160
997;Capital Allergy & Respiratory Disease Center - Roseville Office;1451 Secret Ravine Pkwy;95661;(916) 453-8696;https://capitalallergy.com/
998;Weston Ranch Branch Library;1453 W French Camp Rd;95206;(209) 937-8221;http://www.ssjcpl.org/locations/stockton/wranch.html
1006;Salvation Army;14585 La Paz Ave;92395;(760) 245-2545;http://frc.vesd.net/community_resources/emergency_food
1018;SOS Harbor Pediatric Health Center;14642 Newport Ave;92780;(949) 270-2100;https://www.shareourselves.org/
1019;Connections Program;1465 Civic Ct;94520;(925) 825-1060;https://www.lssnorcal.org/
1020;Marin Treatment Center;1466 Lincoln Ave;94901;(415) 457-3755;https://marintreatmentcenter.org/mental-health-services/
1022;Marin Treatment Center;1466 Lincoln Ave;94901;(415) 457-3755;www.MTCinc.org
1024;Atwork Personnel;14715 Catalina St;94577;(510) 957-5804;https://atwork.com
1025;Calvary Baptist Church;14722 Clark Ave;90706;(562) 925-3706;https://calvarybellflower.org
1027;Rite Aid Pharmacy;14727 Rinaldi St;91340;(818) 361-8010;https://www.riteaid.com/pharmacy/services/virtual-care
1029;Fresenius Kidney Care - Roseville Home: Home HD;1474 Stone Point Dr;95661;(916) 771-4111;https://www.freseniuskidneycare.com/dialysis-centers/california/6837?utm_campaign=Website&utm_medium=&utm_source=YextGMB&utm_content=6837
1030;The Allergy Station;1478 Stone Point Dr;95661;(916) 238-6238;https://theallergystation.com/
1033;Curt's Pharmacy;14829 Seventh St;92395;(760) 245-3518;https://www.curtsrx.com/
1034;Burning Bush Church: The Victor Valley Rescue Mission;14849 7th St;92395;(760) 241-6221;http://frc.vesd.net/community_resources/emergency_food
1035;Pulmonary Medicine Associates - Sacramento Location;1485 River Park Dr;95815;(916) 679-3590;https://www.pmamed.com/physicians/chiraag-patel-md/
1036;Pulmonary Medicine Associates - Sacramento Location;1485 River Park Dr;95815;(916) 679-3590;https://www.pmamed.com/sacramento-physicians/
1038;Women of Noble Character;14890 Loves Ln;92392;(442) 242-1497;https://www.womenofnoblecharacter.org/Events.html
1039;Eureka Ridge Dentistry;1490 Eureka Rd;95661;(916) 409-3979;http://www.eurekaridgedentistry.com/
1040;Chinatown Public Health Center WIC Clinic;1490 Mason St;94133;(415) 364-7654;https://www.sfdph.org/dph/comupg/oprograms/NutritionSvcs/WIC/WIClocations.asp
1043;Salvation Army;14917 Victory Blvd;91411;(818) 781-5739;http://www.salvationarmy.org/
1052;Walgreens Pharmacy;15 W Harding Way;95204;(209) 941-9632;https://www.walgreens.com/
1054;Northwest Santa Rosa Library;150 Coddingtown Ctr;95401;(707) 546-2265;https://sonomalibrary.org/locations/northwest-santa-rosa-library
1055;Ontario Health Center;150 E Holt Blvd;91761;;https://opa-fpclinicdb.hhs.gov/service-site/san-bernardino-county-department-public-health-west-valley-public-health-center
1060;Martinez ARTS Outpatient Clinic - VA Nor-Cal Healthcare System;150 Muir Rd;94553;(925) 372-2105;https://www.va.gov/northern-california-health-care/
1061;Burbank Housing Authority;150 N 3rd St;91502;(818) 238-5160;http://www.burbankca.gov/departments
1062;El Proyecto Del Barrio - Azusa Health Center;150 N Azusa Ave;91702;(626) 969-7885;http://www.elproyecto.us/health-wellness/azusa-health-center/
1066;Valley Recovery Center East Bay;150 N Wiget Ln;94598;(888) 994-1906;https://valleyrecovery.com/
1067;Foresight Mental Health;150 N Wiget Ln;94598;(925) 303-4343;https://foresightmentalhealth.com
1070;San Bernardino County Services;150 S Lena Rd;92415;(909) 388-0233;https://wp.sbcounty.gov/hs/
1072;Neiman Marcus;150 Stockton St;94108;;https://chargeitspot.com/
1073;One Community Health - Midtown Campus;1500 21st St;95811;(916) 443-3299;https://onecommunityhealth.com/locations/midtown-campus/
1074;Stanislaus County Library;1500 I St;95354;(209) 558-7800;http://www.stanislauslibrary.org/
1076;COTS Family Center - Petaluma;1500 Petaluma Blvd S;94952;(707) 765-6530;https://cots.org/housing/
1077;Inland Fair Housing & Mediation Board;1500 S Haven Ave;91761;(909) 984-2251;https://www.ifhmb.com
1079;Catholic Charities;15000 7th St;92395;(760) 243-1100;http://frc.vesd.net/community_resources/homeless_and_housing_services
1080;California Department of Healthcare Services;1501 Capitol Ave;95814;(916) 445-1248;www.dhcs.ca.gov/
1081;Pacific Bay Recovery;1501 Fifth Ave;92101;(619) 220-9099;https://www.pacificbayrecovery.com
1082;Contra Costa County - Health Services;1501 Fred Jackson Way;94801;(510) 374-7330;https://cchealth.org/
1083;Flying J Travel Plaza;1501 Jack Tone Rd;95366;(209) 599-4141;https://pilotflyingj.com/
1085;Roseville Martha Riley Community Library;1501 Pleasant Grove Blvd;95747;(916) 774-5221;https://www.roseville.ca.us/cms/One.aspx?portalId=7964922&pageId=8918700
1086;Foothill Family Shelter, Inc;1501 W 9th St;91786;(909) 920-0453;https://foothillfamilyshelter.org/home
1087;LA County - Department of Public Health;1501-1527 W Covina Pkwy;91790;(626) 813-3380;http://publichealth.lacounty.gov
1088;Kaiser Permanente - Behavioral Health Offices;1502 W Covina Pkwy;91790;(626) 960-4844;https://healthy.kaiserpermanente.org/southern-california/facilities/West-Covina-Behavioral-Health-Offices-100029
1089;Doctors Behavioral Health Center;1505 Claus Rd;95355;(209) 557-6300;https://www.dmc-modesto.com/locations/detail/doctors-behavioral-health-center
1091;Family Assistance Program - Next Step Program;15075 7th St;92395;(909) 335-2676;https://familyassist.org/programs/next-step/
1092;Pulmonary Medicine Associates - Sacramento Location;1508 Alhambra Blvd;95816;(916) 679-3590;https://www.pmamed.com/services/infectious-disease/
1093;HomeFirst - Sobrato Family Living Center;1509 Agnew Rd;95054;(408) 539-2136;https://www.homefirstscc.org/programs
1094;Roseville Orthopedic Surgery and Sports Medicine;151 N Sunrise Ave;95661;(916) 782-1217;https://www.rosevilleorthopedics.com/
1095;BrightStar Care Home Care in Roseville / South Placer County;151 N Sunrise Ave;95661;(916) 781-6500;https://www.brightstarcare.com/roseville-south-placer-county/contact-us
1096;Summit Nephrology Group, Inc;151 N Sunrise Ave;95661;(916) 789-1505;https://summitnephrology.com/
1097;Gill & Bisla Internal Med Associates;151 N Sunrise Ave;95661;(916) 789-8620;http://www.gillbisla.com/index.htm
1098;Maxim Healthcare Services Roseville;151 N Sunrise Ave;95661;(916) 771-7444;https://www.maximhealthcare.com/locations/roseville-ca
1099;Ellis-Jammal Mary Ann, MD;151 N Sunrise Blvd;95661;(916) 771-4414;https://jammalpediatrics.com/index.html
1100;Oakdale Public Library;151 S 1st Ave;95361;(209) 847-4204;http://www.stanislauslibrary.org/
1108;Kaiser Permanente - West Covina Behavioral Health Offices;1511 W Garvey Ave N;91790;(626) 960-4844;https://healthy.kaiserpermanente.org/southern-california/facilities/west-covina-behavioral-health-offices-100029
1109;Brand Park Community Center;15121 S Brand Blvd;91345;(818) 361-1377;https://www.laparks.org/reservations/brandpark
1110;La Puente Church of Christ;15124 Amar Rd;91746;(626) 917-8814;http://www.lapuentechurchofchrist.com
1115;LaborMax Staffing - San Gabriel Temporary Staffing Services, LLC;1515 30th St;95816;(916) 231-1177;www.labormax.net
1120;Center Point;1515 Market Ave;94806;(510) 778-8496;https://findtreatment.gov/details/3e0c8976a3139fe5a296873aafe017d69342c7a8e7c330e07a1a54dca4c995dc?sAddr=37.9586494%2C%20-122.354435
1122;Sacramento Eye Consultants;1515 River Park Dr;95815;(916) 915-0300;https://www.sacramentoeyeconsultants.com/
1123;Children's Bureau - West Covina;1515 W Cameron Ave;91790;(626) 337-8811;https://www.all4kids.org/
1125;Victorville Medical Transportation;15159 Palmdale Rd;92392;(877) 777-7153;http://www.victorvillemedtrans.com/contact.html
1126;ChargeItSpot - Banana Republic;1516 Redwood Hwy;94925;(800) 458-3833;https://chargeitspot.com/
1128;Moses House Ministries;15180 Anacapa Rd;92392;(760) 955-1895;https://www.moseshouse.org/services
1130;The Shower of Hope - Holy Family South Pasadena;1520 Fremont Ave S;91030;;https://theshowerofhope.org/resources/
1133;MCCN Victorville 11th St. Clinic;15201 Eleventh St;92395;(818) 895-3100;https://mccn.org/victorville
1135;BAART Programs - La Puente;15229 E Amar Rd;91744;(626) 855-5090;https://baartprograms.com/baart-southeast/
1137;NVISION Eye Centers - Roseville;1524 Eureka Rd;95661;(866) 204-3708;https://www.nvisioncenters.com/locations/sacramento/nvision-roseville/
1138;Balance Staffing;1524 J St;95354;(209) 645-7773;https://balancestaffing.com/
1144;Archway Recovery Services;1525 Union Ave;94533;(707) 435-1804;https://www.recoveryatarchway.com/
1147;Food Distribution Center - Haight Ashbury Food Program;1525 Waller St;94117;;https://www.thefoodprogram.org/
1149;Allergy Medical Group of the North Area - Yuba City Office;1526 Plumas Ct;95991;(530) 755-3352;https://allergymedgroup.com/about/
1150;Feed My Sheep Ministries - 1st Assembly of God;15260 Nisqualli Rd;92395;(760) 242-7701;http://frc.vesd.net/community_resources/emergency_food
1151;Rite Aid Pharmacy;1528 E Amar Rd;91792;(626) 965-2016;https://www.google.com/maps/place/Rite+Aid+Pharmacy/@34.0291824,%20-117.9486598,%2013z/data=!3m1!5s0x80c329f9db30981b:0x90744fda44c818a7!4m9!1m3!2m2!1spharmacy+near+west+covina+ca+91790!6e2!3m4!1s0x80c329f9d3155555:0xf02cc04ac36d5c4!8m2!3d34.0291824!4d-117.9136409
1152;Walgreens Pharmacy;1528 E Fremont St;95205;(209) 467-7861;https://www.walgreens.com/
1153;The Allergy Center at Sacramento Ear, Nose, & Throat;1528 Eureka Rd;95661;(916) 736-6644;https://sacent.com/allergy/providers/
1154;Spine & Nerve Diagnostic Center;1528 Eureka Rd;95661;(916) 772-5325;https://spinenerve.com/
1156;Roseville Maidu Library;1530 Maidu Dr;95661;(916) 774-5221;https://www.roseville.ca.us/cms/One.aspx?portalId=7964922&pageId=8918700
1162;Community Action Resources;1531 2nd St;95320;(209) 838-8472;https://escaloncare.org/
1163;ICR Staffing Services, Inc;15316 Dos Palmas Rd;92392;(760) 245-8384;https://www.icrjobs.com/
1164;Salvation Army - Santa Monica - Charging Station;1533 4th St;90401;(310) 451-1358;http://hopenavigationcenter.org/?service=JsJXQdMZ1Qnbt1BRvPw6&place=IUboO6FOwB7LQP9qnEh2
1165;Wound Care Orange County;1533 E 4th St;92701;(833) 700-0998;https://woundcareoc.com/
1166;American Addiction Institute of Mind and Medicine;1533 E 4th St;92701;(800) 779-4715;https://american-addiction.com/
1167;American Addiction Institute of Mind and Medicine;1533 E 4th St;92701;(800) 779-4715;https://american-addiction.com/harm-reduction-institute/
1169;Granite Bay Dermatology and Laser Center;1535 Eureka Rd;95661;(916) 773-3376;http://www.granitebaydermatologyandlaser.com/index.php
1171;Ezcare Pharmacy;1535 W Merced Ave;91790;(626) 587-0400;https://ezcarepharmacyrx.com/
1172;Dr. Sara Dhand;1535 W Merced Ave;91790;(626) 960-7759;https://www.healthcare6.com/physician/west-covina-ca/sara-dhand-2322465.html
1174;Kaiser Permanente - West Covina Behavioral Health Offices - Addiction Medicine;1539 W Garvey Ave;91790;(626) 960-4844;https://healthy.kaiserpermanente.org/southern-california/facilities/West-Covina-Behavioral-Health-Offices-100029
1176;Mission Council on Alcohol Abuse;154 Capp St;94110;(415) 826-6767;http://www.missioncouncil.org/home.html
1177;Escalon Branch Library;1540 2nd St;95320;(209) 937-8221;http://www.ssjcpl.org/locations/county/escalon.html
1178;Parkmoor Ave, San Jose;1540 Parkmoor Ave;95126;(650) 779-4635;http://dignityonwheels.org/
1180;Oakland Housing Authority;1540 Webster St;94612;(510) 874-1653;http://www.oakha.org/Pages/default.aspx
1185;Walnut Creek United Methodist Church;1543 Sunnyvale Ave;94597;(925) 934-4208;https://foodbankccs.org
1186;Jay Mahler Recovery Center;15430 Foothill Blvd;94578;;https://www.telecarecorp.com/
1188;Volt Workforce Solutions;1544 Eureka Rd;95661;(916) 923-0454;www.volt.com
1189;Dialysis Clinic, Inc;1545 Meadowview Rd;95832;(916) 392-1250;https://www.dciinc.org/meadowview/
1190;First Place for Youth;1545 N Texas St;94533;(707) 430-4360;https://www.solanocounty.com/documents/Housing.pdf
1193;San Bernadino County Housing Authority - Pilot Homeless Programs;15465 Seneca Rd;92392;(760) 243-1043;https://hacsb.com/types-of-affordable-housing/
1196;Dixon Family Services - Marriage, Family, Children;155 N 2nd St;95620;(707) 678-0442;https://dixonfs.org/
1198;CVS Pharmacy;1550 E 14th St;94577;(510) 351-7957;https://www.cvs.com/store-locator/san-leandro-ca-pharmacies/1550-east-14th-st-san-leandro-ca-94577/storeid=9635
1200;Kaiser Permanente - Pharmacy;1550 Gateway Blvd;94533;(707) 427-4208;https://thrive.kaiserpermanente.org/care-near-you/northern-california/napasolano/departments/pharmacy/pharmacy-locations-hours-operation/
1201;Wellspace Health - Residential Treatment Center;1550 Juliesse Ave;95815;(916) 921-6598;https://dhs.saccounty.net/BHS/Pages/SUPT/Service-Descriptions.aspx
1205;CVS Pharmacy;1550 Puente Ave;91706;(626) 814-1483;https://www.cvs.com/store-locator/baldwin-park-ca-pharmacies/1550-puente-avenue-baldwin-park-ca-91706/storeid=9673?WT.mc_id=LS_GOOGLE_FS_9673
1206;Unity Hall;15500 Seventh St;92395;(760) 955-5958;https://vvrescuemission.org/direct-assistance/
1207;Walgreens Pharmacy;15500 Washington Ave;94579;(510) 483-3917;https://www.walgreens.com/locator/walgreens-15500+washington+ave-san+leandro-ca-94579/id=2426
1208;Lord's Table - St. Joan of Arc Catholic Church;15512 6th St;92392;(760) 245-7674;http://frc.vesd.net/community_resources/emergency_food
1210;Samaritans Helping Hands;15527 8th St;92395;(760) 243-5933;http://frc.vesd.net/community_resources/emergency_food
1212;St. John of God Health Care Services - Outpatient Services;15534 6th St;92395;(760) 241-4917;http://www.stjoghcs.org/samaritan-helping-hand.html
1213;ChargeItSpot - Gap;1554 Redwood Hwy;94925;(800) 458-3833;https://chargeitspot.com/
1223;East Valley Community Health Center - Pomona Health Center;1555 S Garey Ave;91766;(909) 620-8088;https://www.evchc.org/
1225;Walmart Pharmacy;15555 Hesperian Blvd;94579;(510) 351-0132;https://www.walmart.com/store/5434-san-leandro-ca/pharmacy?&cn=Tracking_local_pack_1
1226;Victor Valley Rescue Mission;15572 7th St;92392;(760) 927-5141;https://vvrescuemission.org/thrift/
1227;Victor Valley Rescue Mission;15572 7th St;92395;(760) 955-5958;https://www.victorvilleca.gov/Home/Components/BusinessDirectory/BusinessDirectory/164/23?backlist=%2fservices%2fhomeless-outreach%2fhomelessness-solutions%2fhigh-desert-homeless-community-resources%2fshowers
1231;Workforce Enterprises;15636 Arrow Hwy;91706;(626) 337-0606;https://www.workforceenterprises.net/
1232;Amar Healing and Recovery Center;1564 Bush St;94109;(833) 467-2627;https://www.amartreatment.com/
1233;Los Angeles County Department of Public Health: Facilities Inspection Division;15643 Sherman Way;91406;(818) 901-4375;http://publichealth.lacounty.gov/hfd/howto.htm
1234;Priority Workforce - Irwindale;15648 Arrow Hwy;91706;(626) 869-0520;https://priorityworkforce.com/
1235;Silicon Valley Safe Parking Program - San Jose;1567 Alta Glen Dr;95125;(650) 779-4635;http://dignityonwheels.org/
1240;San Bernardino Workforce Development;157 W Fifth St;92415;(909) 387-8304;https://wp.sbcounty.gov/workforce/
1241;First Rescue Ambulance, Inc;15705 Arrow Hwy;91706;(626) 338-2273;http://www.firstrescueambulance.com/
1246;Sierra Hematology & Oncology - Folsom Location;1580 Creekside Dr;95630;(916) 984-6230;http://www.sierrahemonc.com/
1248;Life Community Development;15815 Horizon Way;92301;(760) 246-0691;https://lifecommunitydevelopment.org/grant-per-diem
1249;CitiStaff Solutions, Inc;15855 Edna Pl;91706;(626) 960-1270;https://citistaffsolutions.com/
1251;CVS Pharmacy - Store # 2290;1587 W El Camino Ave;95833;(916) 568-1667;https://www.cvs.com/store-locator/cvs-pharmacy-address/1587+West+El+Camino+Avenue-Sacramento-CA-95833/storeid=2290?WT.mc_id=LS_GOOGLE_FS_2290
1256;La Puente Library;15920 Central Ave;91744;(626) 968-4613;https://lacountylibrary.org
1257;Tri City Rx Pharmacy, Inc;15940 Quantico Rd;92307;(760) 946-1414;https://www.google.com/maps/place/Tri+City+Rx+Pharmacy,+Inc./@37.5714432,-121.9821568,32974a,13.1y,90t/data=!3m8!1e2!3m6!1sAF1QipPzGkwNmdETNjC0NKHMbK9ED7TO3fmzq__FU_zd!2e10!3e12!6shttps:%2F%2Flh5.googleusercontent.com%2Fp%2FAF1QipPzGkwNmdETNjC0NKHMbK9ED7TO3fmzq__FU_zd%3Dw114-h86-k-no!7i4032!8i3024!4m8!1m2!2m1!1spharmacy+near+apple+valley+california+92307!3m4!1s0x80c36503eb6a3c9b:0xa004f1e38fea3ab9!8m2!3d34.5408764!4d-117.2708724
1261;Marin AIDS Project/Spahr Center - Syringe Access Site - Ritter Center;16 Ritter Ave;94901;(415) 886-8556;https://thespahrcenter.org/syringe-access/
1262;Ritter Center;16 Ritter St;94901;(415) 457-8182;https://rittercenter.org/our-programs/health-center/
1265;Ritter Center;16 Ritter St;94912;(415) 457-8182;https://rittercenter.org/our-programs/day-services/
1269;La Puente Valley Community Mental Health Center;160 S 7th Ave;91746;(626) 961-8971;http://www.ehrs.com/
1270;Capitol Endocrinology, Inc;1600 Creekside Dr;95630;(530) 677-0700;https://www.capitolendo.com/, https://www.dignityhealth.org/ourdoctors/1902878978-Jaiwant-Rangi
1271;Kaiser Permanente - Women's Health;1600 Eureka Rd;95661;(916) 784-4148;https://mydoctor.kaiserpermanente.org/ncal/providers/andrewwalter
1272;Kaiser Permanente - Pediatric Specialty Clinic;1600 Eureka Rd;95661;(916) 474-2250;https://thrive.kaiserpermanente.org/care-near-you/northern-california/northvalley/departments/pediatric-specialties/
1273;Kaiser Permanente - Pulmonary Medicine;1600 Eureka Rd;95661;(916) 784-5375;https://thrive.kaiserpermanente.org/care-near-you/northern-california/northvalley/departments/pulmonary-medicine/
1274;Kaiser Permanente - Wound and Ostomy Clinic;1600 Eureka Rd;95661;(916) 784-4000;https://thrive.kaiserpermanente.org/
1275;Kaiser Permanente - Head and Neck Surgery Department;1600 Eureka Rd;95661;(916) 784-5880;https://thrive.kaiserpermanente.org/care-near-you/northern-california/northvalley/departments/head-and-neck-surgery/
1276;Kaiser Permanente - Roseville Medical Center;1600 Eureka Rd;95661;(916) 784-4000;https://mydoctor.kaiserpermanente.org/ncal/get-care/
1289;Arrow Staffing;1600 S Grove Ave;91761;(909) 786-4321;https://www.arrowstaffing.com/
1290;Dress for Success;1600 Sacramento Inn Way;95815;(916) 243-1282;https://sacramento.dressforsuccess.org/
1291;Berkeley Food Pantry;1600 Sacramento St;94702;(510) 525-2280;https://www.foodpantries.org
1294;Victor Valley Family Resource Center;16000 Yucca St;92345;(760) 669-0300;http://frc.vesd.net/community_resources/homeless_and_housing_services
1295;Center Point - Medical Clinic;1601 2nd St;94901;(415) 473-INFO;www.cpinc.org
1296;The Shower of Hope - Whittier Narrows;1601 N Rosemead Blvd;91733;;https://theshowerofhope.org/resources/
1297;Center Point - Intensive Outpatient Program;1601 Second St;94901;(415) 456-6655;http://www.cpinc.org/index.php?option=com_content&view=article&id=26&Itemid=140
1298;ShuttleMED, Inc;1601 Sinclair St;92806;(714) 939-7849;http://www.shuttlemed.com/home.html
1299;West Covina Library;1601 W Covina Pkwy;91790;(626) 962-3541;https://lacountylibrary.org/west-covina-library/
1300;Southwest Community Center;1601 W Second St;92703;(714) 547-4073;https://www.capoc.org/wp-content/uploads/2021/04/SWCC-Flyer-4.8.21-v2.pdf
1301;John Muir Medical Center - Walnut Creek Campus;1601 Ygnacio Valley Rd;94598;(925) 939-3000;https://harmreduction.org/our-work/action/california/
1302;Kamran Staffing, Inc;16020 Amar Rd;91744;(626) 968-8400;http://kamranstaffing.com/office-locations/city-of-industry/?utm_source=google_GMB&utm_medium=GMB_profile_page&utm_campaign=GMB_profile_info
1305;Sacramento Oral Surgery - Roseville;1603 Eureka Rd;95661;(916) 782-6868;https://www.sacramentooralsurgery.com/practices/sacramento-oral-surgery-roseville/
1310;Apple Valley Catholic Charities;16051 Kasota Rd;92307;(760) 242-2311;https://www.shelterlist.com/zip.php?zip=92307&submit=Search
1313;Seventh Day Adventist;16070 Lorene Dr;92395;(760) 245-3620;http://frc.vesd.net/community_resources/emergency_food
1316;Office of Jeff DiMariano, DDS;1610 Arden Way;95815;(916) 239-7831;https://www.mysacramentodentist.com/?utm_source=gmb_auth
1326;Unicare Community Health Center;16127 Foothill Blvd;92335;(909) 347-0700;https://unicarechc.org
1328;Corestaff Services;16133 Ventura Blvd;91436;(818) 906-0810;https://www.corestaff.com/
1339;Priority Rounds Transportation;16155 Sierra Lakes Pkwy;92336;;https://priorityroundstransport.com/
1343;La Vida Counseling Center;162 N Glassell St;92866;(714) 883-9156;https://www.lavidacounselingcenter.com/
1344;Aspiranet;1620 Cummins Dr;95358;(209) 576-1750;https://www.aspiranet.org/
1349;Hoag Addiction Treatment Center - Irvine;16200 Sand Canyon Ave;92618;(888) 491-7124;https://www.hoagaddictiontreatment.com/
1350;Walgreens Pharmacy;16201 Harbor Blvd;92708;(714) 839-3496;https://www.walgreens.com/findcare/services?ext=gmb
1351;Laboror Finders Vallejo;1621 Tennessee St;94590;(707) 559-8686;https://www.laborfinders.com
1356;Delhi Health Center;16233 King St;95315;(833) 850-3500;https://www.visitlch.org/
1357;California Association of Food Banks;1624 Franklin St;94612;(510) 272-4435;https://www.cafoodbanks.org
1358;Mid Valley Regional Library;16244 Nordhoff St;91343;(818) 895-3650;http://www.lapl.org/branches/mid-valley
1359;High Desert - Child, Adolescent & Family Services Center, Inc;16248 Victor St;92395;;http://www.highdesertcenterinc.com/#substance_alcohol
1361;Hollywood Syringe Exchange Program;1625 Schrader Blvd;90028;(323) 993-7500;http://chpla.org/schedule
1362;Sutter Sacramento Medical Plaza - Pediatric Gastroenterology;1625 Stockton Blvd;95816;(916) 887-4780;https://www.sutterhealth.org/find-doctor/dr-johann-m-peterson
1365;Inland Psychiatric Medical Group;16279 Walnut St;92345;(760) 947-0070;https://www.inlandpsych.com/
1366;MedMark Treatment Centers - Vallejo;1628 Broadway St;94590;(707) 649-8300;https://medmark.com/medmark-treatment-centers-vallejo/
1368;Fulton Family Dental;1630 Fulton Ave;95825;(916) 929-3737;http://www.fultonfamilydental.com/
1370;Paloma Medical Group;16305 Sand Canyon Ave;92618;(949) 443-4303;https://www.palomaMedi-Cal.com/contact-us
1371;Hematology and Oncology Associates of Northern California - Folsom Location;1631 Creekside Dr;95630;(916) 250-0377;https://hoaonc.com/
1373;Center for Individual & Family Therapy;1633 E 4th St;92701;(714) 558-9266;https://ciftcounseling.com/
1379;Sutter Imaging Roseville Parkway;1640 E Roseville Pkwy;95661;(916) 784-2277;https://www.sutterhealth.org/find-location/facility/sutter-imaging-roseville-parkway
1384;Empire Behavioral Health;16465 Sierra Lakes Pkwy;92336;(909) 725-4742;https://empirebhservices.com/contact-us/
1388;GRIP Family Housing Program;165 22nd St;94801;(510) 233-2141;https://gripcares.org/front-page/services/
1389;GRIP Family Housing Program - Richmond, CA - Family Shelter;165 22nd St;94801;(510) 233-2141;https://gripcares.org/front-page/services/
1390;GRIP Family Housing Program - Richmond, CA - Family Shelter;165 22nd St;94801;(510) 233-2141;https://gripcares.org/front-page/services/
1391;Greater Richmond Interfaith Program;165 22nd St;94801;(510) 233-2141;https://gripcares.org/front-page/services/
1395;Marin Advanced Wound Care Clinic;165 Rowland Way;94945;(415) 449-8580;https://marinawc.com/
1399;Mercy Medical Group - Folsom Prairie City Rd Location;1650 Creekside Dr;95630;(916) 986-4426;https://www.dignityhealth.org/ourdoctors/1124125208-Michael-Barger
1400;Wellness Podiatry - Roseville Location;1650 Lead Hill Blvd;95661;(916) 306-7610;https://www.wellnesspodiatry.com/
1402;Kaiser Permanente - Sacramento Medical Center;1650 Response Rd;95815;(916) 614-4015;https://mydoctor.kaiserpermanente.org/ncal/providers/wmcclanahan#tab%7C3%7C%7COffices%20&%20Directions%7C/ncal/provider/wmcclanahan/offices/?ctab=Offices+%2526+Directions&to=2
1403;Dr. Kenneth Etefia, MD;1650 S Amphlett Blvd;94402;(650) 206-8932;https://www.drughelpcenters.com/physician/kenneth-etefia
1407;Life Skills Awareness;16501 Walnut St;92345;(760) 949-1200;https://www.lifeskillsawareness.org/
1412;d'Amore Healthcare;16541 Gothard St;92647;(714) 375-1110;https://damorementalhealth.com
1413;Desert Hill Center Crisis Residential Treatment;16552 Sunhill Dr;92395;(760) 780-4400;https://www.starsinc.com/valley-star-behavioral-health/desert-hill-crt/
1417;LaborMax Staffing - San Jose - San Gabriel Temporary Staffing Services, LLC;1659 Branham Ln;95118;(408) 264-2000;https://www.labormax.net/
1418;Pathway Society, Inc;1659 Scott Blvd;95050;(408) 244-1834;http://pathwaysociety.org/
1426;Woodcrest Library;16625 Krameria Ave;92504;(951) 789-7324;https://www.capriverside.org/Portals/2/PDF/Cool/Sept2021/2021_Cool_Center_Directory.pdf?ver=2021-09-09-105139-163&timestamp=1631209902511
1429;Restoration Center - 7th Day Adventist Church;16673 Avalon Ave;92395;(760) 243-2525;http://frc.vesd.net/community_resources/emergency_food
1430;Labor Finders San Leandro;1670 Alvaradi St;94577;(510) 678-3461;https://laborfinders.com
1440;California Medical Center;16701 Valley Blvd;92335;(909) 434-4755;https://www.scvmc.org
1441;Fontana Community Senior Center;16710 Ceres Ave;92335;(909) 854-5151;https://www.fontana.org/384/Fontana-Community-Senior-Center
1451;Sutter Imaging Vascular & Varicose Vein Center;1680 E Roseville Pkwy;95661;(916) 783-8114;https://www.sutterhealth.org/find-location/facility/sutter-imaging-vascular-varicose-vein-center
1452;Retinal Consultants;1680 E Roseville Pkwy;95661;(916) 774-0100;https://retinalmd.com/
1453;Food Warehouse;16815 Spring St;92335;(909) 803-1059;https://wateroflifecc.org/food-warehouse/
1455;New Day Counseling;16823 Arrow Blvd;92335;(909) 355-3888;https://www.newdaycenters.org/
1459;Oakland Public Library - Montclair Branch;1687 Mountain Blvd;94611;(510) 482-7810;http://www.oaklandlibrary.org/
1461;Set Free Christian Fellowship;16949 S D St;92395;(760) 241-9428;http://frc.vesd.net/community_resources/emergency_food
1462;Mobility Express Medical Transportation;1695 Abram Ct;94577;(209) 565-0148;http://www.mobextransport.com/
1463;Mobility Express Medical Transportation;1695 Abram Ct;94577;(510) 940-3064;http://www.mobextransport.com/
1464;CVS;16975 Bear Valley Rd;92345;(760) 947-7043;https://www.cvs.com/store-locator/cvs-pharmacy-address/16975+Bear+Valley+Rd-Hesperia-CA-92345/storeid=9644?WT.mc_id=LS_GOOGLE_FS_9644
1467;Magnolia Women's Recovery;17 Embarcadero Cv;94606;(510) 535-1344;https://magnoliarecovery.org
1468;Magnolia Women's Recovery;17 Embarcadero Cv;94606;(510) 535-1344;http://www.magnoliarecovery.org/contact.html
1472;CVS Pharmacy;1700 Mchenry Ave;95350;(209) 529-4813;https://www.cvs.com/
1473;Center for Human Services;1700 Mchenry Ave;95350;(209) 527-3270;https://www.centerforhumanservices.org/
1474;Sierra Vista Child & Family Services - First Step Perinatal Substance Abuse Program;1700 Mchenry Village Way;95350;(209) 527-3270;https://www.sierravistacares.org/
1475;Foundations San Francisco;1700 Montgomery St;94111;(415) 917-2392;https://www.foundationsrecoverynetwork.com/locations/foundations-san-francisco/
1476;Bay Area Rapid Transit;1700 Nevin Ave;94801;(510) 464-6000;http://www.ci.richmond.ca.us/3120/Bay-Area-Rapid-Transit-BART
1477;Richmond AMTRAK;1700 Nevin Ave;94801;(800) USA-RAIL;http://www.ci.richmond.ca.us/3121/Richmond-AMTRAK
1478;AC Transit;1700 Nevin Ave;94801;(510) 464-7133;http://www.ci.richmond.ca.us/3122/AC-Transit
1480;RockyRidge Family Dental;1700 Rocky Ridge Dr;95661;(916) 782-6001;https://dentalrockyridge.com/
1486;LavaMae;1701 Monarch St;94501;(415) 872-6950;https://lavamaex.org/
1487;BAART Programs - Boyle Heights;1701 Zonal Ave;90033;(323) 577-7156;https://baartprograms.com/baart-boyle-heights/
1488;BAART Programs - Sun Valley;1701 Zonal Ave;90033;(323) 843-9013;https://baartprograms.com/
1489;Walgreens Pharmacy;17010 Chatsworth St;91344;(818) 360-0871;https://www.walgreens.com/findcare/services?ext=gmb
1493;First Aid Transportation, LLC;1709 International Blvd;94606;(510) 479-7328;https://www.facebook.com/pages/category/Medi-Cal---Health/First-Aid-Transportation-100400064843704/
1495;Westside Food Bank;1710 22nd St;90404;(310) 828-6016;https://www.wsfb.org/
1506;F.I.S.H. of Santa Rosa;1710 Sebastopol Rd;95402;(707) 527-5151;https://fish-of-santa-rosa.org/
1507;Baldwin Park Counseling Center;1710 W Cameron Ave;91790;(626) 917-2120;https://baldwinparkcounseling.com/
1510;The Shower of Hope - Hollywood Adventist Church;1711 N Van Ness Ave;90028;;http://theshowerofhope.org/resources/
1513;Elisha's Pantry - Christ Church United Methodist;1717 Yulupa Ave;95405;(707) 542-2569;http://www.srchristchurch.org/
1516;Bay Area Community Resources General Outpatient - Family Connections;172 Carlos Dr;94903;(415) 755-2335;https://www.rehab.com/bay-area-community-services-family-connections-san-rafael
1520;Career Options;1720 W Cameron Ave;91790;(213) 389-0900;http://careeroptionsinc.com/
1523;ReNew Stores;1725 Santa Clara Dr;95661;(916) 788-0275;http://acresofhoperenewstores.org/
1548;Walgreens Pharmacy;1726 Superior Ave;92627;(949) 629-9714;https://www.walgreens.com/findcare/services?ext=gmb
1551;Woodcrest Residential Treatment for Men;17270 Roosevelt St;92508;(951) 780-2541;https://www.mfirecovery.com/contents/office-galleries/residential/woodcrest
1552;Emmanuel Temple;17288 Stoddard Wells Rd;92394;(760) 245-4973;http://frc.vesd.net/community_resources/emergency_food
1556;Vocational Improvement;17292 Eucalyptus St;92345;(760) 948-1312;https://www.vipsolutions.com/
1557;Mercy Medical Group - Folsom Prairie City Rd Location;1730 Prairie City Rd;95630;(916) 735-4366;https://www.dignityhealth.org/ourdoctors/1366554933-Dennis-Liu
1560;High Desert - America's Job Center of California;17310 Bear Valley Rd;92395;(760) 552-6550;https://wp.sbcounty.gov/workforce/event/hiring-event-high-desert-americas-job-center-of-california-3/
1561;Kingsley Dental Group;1733 Professional Dr;95825;(916) 972-0788;http://kingsleydds.com/
1566;Chartwell Staffing Solutions;1739 First St;94559;(707) 253-8200;https://chartwellstaff.com/napa-ca-staffing-agency/
1567;Covina Pharmacy;174 W Badillo St;91723;(626) 915-6615;https://www.iepharmacy.com/pharmacy-locations/covina-pharmacy
1569;310 Recovery, Inc;1741 Hauser Blvd;90019;(888) 346-4350;https://310recovery.com/
1581;Elica Health Centers - Arden Arcade;1750 Wright St;95825;(916) 454-2345;https://www.elicahealth.org/arden-arcade/
1582;Food Distribution Center - Old Presbyterian Church - Interfaith Food Pantry;1751 Sacramento St;94109;(415) 776-5552;http://www.oldfirst.org/pantry.html
1583;Inland Valley Hope;1753 N Park Ave;91768;(909) 622-3806;https://www.inlandvalleyhopepartners.org/Program-Services/Food-Security-Program.asp
1584;Swapping Mamas;17537 Montezuma St;92301;(760) 508-5960;http://frc.vesd.net/community_resources/clothing
1587;Union Station Homeless Services - Family Solution Centers;1755 E Huntington Dr;91010;(626) 240-4550;https://unionstationhs.org/?post_type=programs&p=2726
1588;Safe & Sound TALK Line;1757 Waller St;94117;(415) 441-5437;https://safeandsound.org/
1589;The Shower of Hope - First Presbyterian Chruch of Hollywood;1760 N Gower St;90028;(951) 677-4964;https://theshowerofhope.org/resources/
1591;CVS Pharmacy;17625 Harvard Ave;92614;(949) 261-5690;https://www.cvs.com/minuteclinic/virtual-care/telehealth-options?WT.mc_id=LS_CVSRX_GOOGLE_16064_get_online_care_button
1594;Aegis Treatment Centers;1768 Mitchell Rd;95307;(209) 239-9606;https://pinnacletreatment.com/
1596;Express Employment Professionals;177 Butcher Rd;95687;(707) 446-2150;https://www.expresspros.com/vacavilleca/?utm_source=gmb&utm_medium=organic&utm_campaign=Qiigo
1597;Rio Hondo Community Mental Health Center;17707 S Studebaker Rd;90703;(562) 402-0688;https://locator.lacounty.gov/health/Location/3180940/rio-hondo-community-mental-health-center
1598;CVS Pharmacy - Store #5091 - Pleasant Grove Blvd Location;1771 Pleasant Grove Blvd;95747;(916) 772-2239;https://www.cvs.com/store-locator/cvs-pharmacy-address/1771+Pleasant+Grove+Boulevard-Roseville-CA-95747/storeid=5091?WT.mc_id=LS_GOOGLE_FS_5091
1600;First Christian Church;17746 George Blvd;92394;(760) 246-4100;http://frc.vesd.net/community_resources/emergency_food
1606;Harmonic Solutions;1776 Ygnacio Valley Rd;94598;(925) 278-1792;https://harmonic-solutions-llc.business.site/?utm_source=gmb&utm_medium=referral
1613;Fresenius Kidney Care - Harding Roseville;1781 Santa Clara Dr;95661;(916) 746-0071;https://www.freseniuskidneycare.com/dialysis-centers/california/7164
1614;HomeAid Orange County;17821 17th St;92780;(949) 220-1136;http://www.homeaidoc.org/
1615;East Valley Community Health Center - Villacorta School-Based Clinic;17840 Villa Corta St;91744;(626) 919-4333;https://www.evchc.org/
1623;Food Distribution Center - Radiant Health Centers;17982 Sky Park Cir;92614;(949) 809-8769;https://www.radianthealthcenters.org/social-services#food-pantry
1626;Harm Reduction Therapy Center;18 E Blithedale Ave;94941;(415) 863-4282;https://harmreductiontherapy.org/
1627;ChargeItSpot - Target;180 Donahue St;94965;(800) 458-3833;https://chargeitspot.com/
1628;Ujima East Day Treatment Program;180 E Leland Rd;94565;(925) 427-9100;http://www.ujimafamily.org/
1634;The North Face;180 Post St;94108;;https://chargeitspot.com/
1635;Aloha Non Emergency Medical Transport - The Promenade;180 Promenade Cir;95834;(916) 500-2581;https://alohanemt.com/#0677ec92-0d5c-48c3-856a-f666c4cc726f
1636;River City Food Bank - Midtown Location;1800 28th St;95816;(916) 446-2627;https://rivercityfoodbank.org/
1646;Oakland Public Library - West Oakland Branch;1801 Adeline St;94607;(510) 238-7352;http://oaklandlibrary.org/locations/west-oakland-branch
1648;Craftsman Dental Care;1801 Professional Dr;95825;(916) 974-1160;https://www.craftsmandentalcare.com/
1658;CVS Pharmacy;1803 S Harbor Blvd;92802;(714) 817-9116;https://www.cvs.com/minuteclinic/virtual-care/telehealth-options?WT.mc_id=LS_CVSRX_GOOGLE_16064_get_online_care_button
1659;Midtown Modern Dental Group;1804 19th St;95811;(916) 246-0889;https://www.midtownmoderndentalgroup.com/
1661;Wellness Transit;1807 W Katella Ave;92804;(760) 808-9863;https://lacountylibrary.org/angelo-m-iacoboni-library/
1662;Community Health Center - Apple Valley - St. Mary Medical Center;18077 Outer Hwy 18 South;92307;(760) 946-8169;https://www.providence.org/locations/st-mary-medical-center/community-health-center-apple-valley?y_source=1_MTQyMjc1NzgtNzE1LWxvY2F0aW9uLmdvb2dsZV93ZWJzaXRlX292ZXJyaWRl#llaid=2391
1663;Bridges Family Resource Center;18077 Outer Hwy 18 South;92307;(760) 946-4241;https://www.providence.org/locations/st-mary-medical-center/bridges-family-resource-center
1664;ACT - Family Counseling;18077 Outer Hwy 18 South;92308;(760) 503-9081;https://actfamilycounseling.com/index.php/apple-valley/
1668;Silicon Valley Ambulance;181 Martinvale Ln;95119;(408) 778-4911;https://www.sva-ems.com/
1670;Human Services Department;1811 W Lugonia Ave;92373;(877) 410-8829;https://wp.sbcounty.gov/hs/
1671;American Cancer Society Discovery Shops;1813 Douglas Blvd;95661;(916) 786-7773;https://www.cancer.org/involved/donate/more-ways-to-give/discovery-shops-national/california-discovery-shops/roseville.html
1685;Corona Wound Center;1820 Fullerton Ave;92881;(951) 371-4400;https://www.coronawoundcenter.com
1687;Clinica Tepati;1820 J St;95811;(916) 209-0912;https://clinicatepati.com/
1688;WellSpace Health - J Street Community Health Center;1820 J St;95811;(916) 737-5555;https://www.wellspacehealth.org/location/j-street-community-health-center
1692;Star Staffing;1822 Jefferson St;94559;(707) 204-3562;https://www.starhr.com/locations/napa/
1693;Star Recovery Center;1822 S Bayless St;92802;(855) 205-4380;https://starrecoverycenter.com/
1694;Aegis Treatment Centers;1825 E Thelborn St;91791;(626) 915-3844;https://pinnacletreatment.com/
1696;One Generation Disability Transport;18255 Victory Blvd;91335;(818) 705-2345;https://www.onegeneration.org/transportation-services/
1699;Wilmarth Eye;1830 Sierra Gardens Dr;95661;(916) 507-1707;https://wilmartheye.com/
1700;Dr. Ali Ebrahim;18300 US Hwy 18;92307;(760) 946-8150;https://health.usnews.com/doctors/ali-ebrahim-401324
1701;St. Mary Health Centers Mobile Clinics;18300 US Hwy 18;92307;(760) 946-4240;http://www.stjudenhc.com/about-our-services.html
1702;Arden Dental Care;1832 Avondale Ave;95825;(916) 481-2001;https://www.ardendentalcare.com/
1704;Options Recovery Services;1835 Allston Way;94703;(510) 666-9552;https://optionsrecoveryservices.com/
1707;Golden Gate Pharmacy;1836 Noriega St;94122;(415) 661-0790;http://goldengatepharmacy.com/
1708;DaVita Dialysis Center;1836 Sierra Gardens Dr;95661;(916) 772-0306;https://www.davita.com/locations/ca/roseville/1836-sierra-gardens-dr--5019
1710;Food Distribution Center - Our Lady of the Desert Church Pantry;18386 Corwin Rd;92307;(760) 242-4427;http://frc.vesd.net/community_resources/emergency_food
1712;Aegis Treatment Centers;1839 S El Dorado St;95206;(209) 239-9603;https://pinnacletreatment.com/
1713;LifeMoves - Villa;184 S 11th St;95112;(408) 271-0685;https://www.lifemoves.org/
1714;Building Futures;1840 Fairway Dr;94577;(510) 357-0205;https://bfwc.org/
1718;Tarzana Wound Care Center;18411 Clark St;91356;(818) 757-8839;https://www.providence.org/locations/tarzana-Medi-Cal-center/wound-care-center?y_source=1_OTU3NTk5OS03MTUtbG9jYXRpb24uZ29vZ2xlX3dlYnNpdGVfb3ZlcnJpZGU=#tabcontent-1-pane-2
1721;Walgreens Pharmacy;18430 Sherman Way;91335;(818) 343-4513;https://www.walgreens.com/findcare/services?ext=gmb
1724;PrideStaff;1850 Douglas Blvd;95661;(916) 757-6100;www.pridestaff.com
1728;Safeway Pharmacy - Praire City Road Location;1850 Prairie City Rd;95630;(916) 608-2455;https://local.pharmacy.safeway.com/ca/folsom/1850-prairie-city-rd.html
1731;Walgreens Pharmacy;18515 Devonshire St;91324;(818) 363-1067;https://www.walgreens.com/findcare/services?ext=gmb
1732;WeHope;1854 Bay Rd;94303;(650) 330-8000;https://www.wehope.org/
1737;Broadway Treatment Center;18582 Beach Blvd;92648;(714) 443-8218;https://broadwaytreatmentcenter.com/
1739;Partners Personnel;1860 Chicago Ave;92507;(951) 530-8580;https://www.partnerspersonnel.com/pj_locations/riverside/
1740;LINX Pharmacy;1860 Mowry Ave;94538;(510) 509-2123;https://www.rxspark.com/pharmacy-listings/lirx-1860-mowry-ave-ste-102-fremont-ca-94538-1730
1741;Bay Area Community Health - Mowry III Health Clinic;1860 Mowry Ave;94538;(510) 770-8040;https://bach.health/
1743;Cedar House Life Change Center;18612 Santa Ana Ave;92316;(909) 421-7120;https://cedarhouse.org/
1744;The Church for Whosoever;18628 Seneca Rd;92307;(760) 242-3191;http://www.tcfw.org/Ministries.html
1747;ChargeItSpot - Nordstrom;1870 Redwood Hwy;94925;(800) 458-3833;https://chargeitspot.com/
1760;Canyon Country Community Center;18792 Flying Tiger Dr;91387;(661) 290-2266;https://www.santa-clarita.com/city-hall/departments/recreation-community-services-and-Open-space/recreation/canyon-country-community-center
1761;PEAK Technical Staffing USA;1885 De La Cruz Blvd;95050;(855) 650-7325;https://www.peaktechnical.com/locations/engineering-santa-clara/
1764;Trinity Center;1888 Trinity Ave;94596;(925) 949-8712;https://trinitycenterwc.org/
1771;GKS Family Dentistry;1895 E Roseville Pkwy;95661;(916) 507-0749;https://www.gksfamilydental.com/?utm_source=gmb&utm_medium=organic
1772;Roseville Oaks - Outpatient Behavioral Center;1899 E Roseville Pkwy;95611;(916) 480-5101;https://theoaksoutpatient.com/
1777;Mill Street Center - Shelter for Adults;190 Mill St;94901;(415) 457-9651;https://hbofm.org/about-homeward-bound-of-marin/homeless-families/
1778;Ritter Center;190 Mill St;94901;(415) 457-8182;https://rittercenter.org/
1779;Homeward Bound of Marin - Mill Street Center - Shelter for Adults;190 Mill St;94901;(415) 457-9651;https://hbofm.org/help/
1780;Resilient Children Behavioral Health Center;190 N Wiget Ln;94598;(707) 368-1090;https://resilientchildrenbh.com
1781;Fun N Go - Non Medical Transport;1900 Camden Ave;95124;(844) 238-6646;https://www.funandgotransport.com/
1786;Walgreens Pharmacy;19001 Brookhurst St;92646;(714) 593-1352;https://www.walgreens.com/findcare/services?ext=gmb
1787;Ujima Family Recovery Services - Rectory Women's Residential;1901 Church Ln;94806;(510) 236-3134;https://ujimafamily.org/
1788;Trust Medical Transportation;1901 Mcallister St;94115;(650) 799-9921;https://www.trustmtrans.com/contact/
1792;Friendship Missionary Baptist Church;1905 Florida St;94590;(707) 648-2005;https://www.foodpantries.org
1793;Jacqueline Parada, FNPC;19059 Bear Valley Rd;92308;(661) 254-6600;https://www.zocdoc.com/doctor/1518415546-jacqueline-parada-fnpc
1798;Horus Dental;1907 Douglas Blvd;95661;(916) 773-7259;https://horusdental.com/
1803;Pacific Sands Recovery Center;1909 W Carlton Pl;92704;(949) 426-7962;https://pacificsandsrecovery.com
1804;CVS Pharmacy;191 Depot St;95688;(707) 446-2401;https://www.cvs.com/store-locator/vacaville-ca-pharmacies/191-depot-st-vacaville-ca-95688/storeid=9819?WT.mc_id=LS_GOOGLE_RX_9819
1812;Humanity Showers;1919 Apple St;92054;;https://www.humanityshowers.org/about
1813;Target Sacramento - Arden;1919 Fulton Ave;95825;(916) 483-6093;https://chargeitspot.com/locations/?location=target-sacramento-ca-1
1816;County of Santa Clara - Social Services Agency;1919 Senter Rd;95112;(408) 755-7100;https://socialservices.sccgov.org/home
1817;Golden Valley Health Centers;1920 Memorial Dr;95307;(866) 682-4843;https://www.gvhc.org/
1818;CVS Pharmacy;19201 Bear Valley Rd;92308;(760) 961-6943;https://www.cvs.com/store-locator/cvs-pharmacy-address/19201+Bear+Valley+Rd-Apple+Valley-CA-92308/storeid=16358?WT.mc_id=LS_GOOGLE_RX_16358
1821;CVS Pharmacy - Store #16080 - Roseville Target Location;1925 Douglas Blvd;95661;(916) 786-8992;https://www.cvs.com/store-locator/cvs-pharmacy-address/1925+Douglas+Blvd-Roseville-CA-95661/storeid=16080?WT.mc_id=LS_GOOGLE_RX_16080
1825;Linder Psychiatric;193 Blue Ravine Rd;95661;(916) 608-0714;https://www.echildphychiatry.com
1826;DENTALSource - Sacramento, Downtown;1930 9th St;95811;(916) 393-7336;https://www.dentalsourceofca.com/sacramento-downtown/
1827;Maynord's Recovery Center;19325 Cherokee Rd;95379;(209) 928-3737;http://maynords.com/
1828;Jonathan's Pharmacy;19341 Bear Valley Rd;92308;;https://www.yelp.com/biz/jonathans-pharmacy-apple-valley
1838;Aegis Treatment Centers;1947 N California St;95204;(209) 239-9602;https://pinnacletreatment.com/
1842;Los Lagos Dental;1950 Douglas Blvd;95661;(916) 783-7105;https://loslagosdental.com/
1844;Northstar Detox and Rehab Center;19500 Winifred St;91356;(323) 577-4500;https://northstardetoxrehab.com/who-we-are/
1848;Natomas Family Dentistry;1954 Del Paso Rd;95834;(916) 921-6051;https://www.natomasfamilydentistry.com/
1849;Walgreens Pharmacy;1955 W Texas St;94533;(707) 428-0496;https://www.walgreens.com/locator/walgreens-1955+w+texas+st-fairfield-ca-94533/id=1940
1855;Ronald C. Lee, DDS;1966 Del Paso Rd;95834;(916) 928-9212;https://www.ronaldcleedds.com/
1863;The Shower of Hope - Hollywood Adventist Church;1973 W 54th St;90062;(951) 677-4964;https://theshowerofhope.org/resources/
1864;Balearic Community Center;1975 Balearic Dr;92626;(714) 754-5158;https://www.costamesaca.gov/city-hall/city-departments/parks-and-community-services/community-centers-golf-course-senior-center-tennis-center/balearic-community-center
1869;Ivory Dental Care;1978 Del Paso Rd;95834;(916) 574-9544;http://www.ivorydental.com/#
1870;Lucky Pharmacy;1979 Peabody Rd;95687;(707) 452-0145;https://www.luckysupermarkets.com/stores/peabody-784/5092
1871;Norton Recovery;1988 N California Blvd;94596;(925) 744-5221;https://www.nortonrecovery.com/about-us/
1872;Walgreens Pharmacy;199 Parnassus Ave;94117;(415) 661-5287;https://www.walgreens.com/locator/walgreens-498+castro+st-san+francisco-ca-94114/id=1331
1875;Monument Crisis Center;1990 Market St;94520;(925) 825-7751;https://foodbankccs.org
1876;Evolve Treatment Centers - San Jose;1991 Park Ave;95126;(408) 521-1350;https://evolvetreatment.com/
1878;Bay Area Community Health - Mowry II Health Clinic;1999 Mowry Ave;94538;(510) 713-6686;https://bach.health/about-us/locations/bach-north/
1890;Sutter Roseville Medical General Surgery Center;2 Medical Plaza Dr;95661;(916) 462-8410;https://www.sutterhealth.org/find-doctor/dr-zia-a-dehqanzada?lat=38.7654&lng=-121.2480&away=&care-specialty=&nonphy-care-specialty=&medical-group=&provider-gender=&provider-language=&health-plan=&health-plan-product=&accepting-new=&online-services=&online-service-type=&provider-city=&location=roseville,%20+ca&primary=
1891;Sutter Imaging Roseville II;2 Medical Plaza Dr;95661;(916) 865-1462;https://www.sutterhealth.org/find-location/facility/sutter-imaging-roseville-ii
1892;Sutter Health - 2 Medical Plaza Care Center;Medical Plaza Dr;95661;(916) 797-4715;https://www.sutterhealth.org/find-location/facility/2-medical-plaza-care-center
1893;Sutter Health - 2 Medical Plaza Care Center;Medical Plaza Dr;95661;(916) 797-4715;https://www.sutterhealth.org/find-doctor/dr-bianca-harabor?utm_source=yelp&utm_medium=social&utm_content=branded-url&utm_campaign=smf-yelp-doctors
1894;Sacramento Ear, Nose & Throat - Roseville Location;2 Medical Plaza Dr;95661;(916) 782-1291;https://sacent.com/locations/roseville-office/
1896;Terrence W. Jones, DDS;2 Scripps Dr;95825;(916) 929-6631;http://www.terrencewjonesdds.com/
1897;A. Scott Grivas III, DDS;2 Scripps Dr;95825;(916) 571-0815;https://www.sacsmiledesign.com/
1898;David L. Kahan, DPM;2 Scripps Dr;95825;(916) 487-2383;https://sacramentopodiatrists.com/
1899;M&M Smiles Family & Children's Dentistry;2 Scripps Dr;95825;(916) 920-3572;https://www.mandmsmiles.com/
1900;Adams Dental Associates;2 Scripps Dr;95825;(916) 999-1302;https://www.smilerestoration.com/
1902;Food Distribution Center - Community Action Partnership - Lakeview Senor Center;20 Lake Rd;92604;(714) 667-0717;https://www.capoc.org/oc-food-bank/
1904;Marin County - Health & Human Services;20 N San Pedro Rd;94903;(415) 499-3030;https://www.marinhhs.org/hhs-locations/20-north-san-pedro-rd
1906;Dr. Valery Tarasenko, MD - Advanced Pain Management Institute;200 Butcher Rd;95687;(707) 359-2255;https://www.drughelpcenters.com/suboxone-doctors/ca/vacaville
1910;City of San Jose *311;200 E Santa Clara St;95113;(408) 535-3500;https://www.sanjoseca.gov/your-government/departments-offices/human-resources/health-and-safety
1912;Bay Area Rescue Mission;200 Macdonald Ave;94801;(510) 215-4555;https://www.bayarearescue.org/
1941;La Clinica De La Raza;2000 Sierra Rd;94518;(925) 363-2000;https://foodbankccs.org
1946;Orange Terrace Library;20010 Orange Terrace Pkwy;92508;(951) 826-2184;https://www.capriverside.org/Portals/2/PDF/Cool/Sept2021/2021_Cool_Center_Directory.pdf?ver=2021-09-09-105139-163&timestamp=1631209902511
1947;Orange Terrace Library;20010-B Orange Terrace Pkwy;92508;(951) 826-2184;https://www.riversideca.gov/library/loc_orangeterrace.asp
1948;Woodland Hills Rx Pharmacy;20011 Ventura Blvd;91364;(747) 888-3197;https://www.woodlandhillsrx.com/about-us
1952;SYNERGY HomeCare;2003-A Opportunity Dr;95678;(916) 899-5925;https://www.synergyhomecare.com/agencies/ca/roseville/ca26/
1953;PACE Recovery Center, LLC;20051 SW Birch St;92660;(800) 526-1851;https://www.pacerecoverycenter.com/
1955;Stratton Community Center - Bordwell Park;2008 Martin Luther King Blvd;92507;(951) 826-5355;https://www.capriverside.org/Portals/2/PDF/Cool/Sept2021/2021_Cool_Center_Directory.pdf?ver=2021-09-09-105139-163&timestamp=1631209902511
1956;HAART - Hayward;20094 Mission Blvd;94541;(510) 727-9755;http://www.haarthayward.org/intake-process
1957;Crescent Food Bank;201 E 4th St;92701;(714) 782-4081;https://crescentfoodbank.org/
1961;Hutton House;201 Jennie St;95354;(209) 526-1623;https://www.centerforhumanservices.org/what-we-do/shelter-services/hutton-house/
1963;Community Psychiatry - Walnut Creek;201 N Civic Dr;94596;(925) 299-9033;https://www.communitypsychiatry.com
1966;Anaheim City Human Resources;201 S Anaheim Blvd;92805;(714) 765-5111;http://www.anaheim.net/
1969;Walgreens Pharmacy;2010 Alamo Dr;95687;(707) 451-8304;https://www.walgreens.com/locator/walgreens-2010+alamo+dr-vacaville-ca-95687/id=2644
1971;HomeFirst - Boccardo Reception Center;2011 Little Orchard St;95125;(408) 294-2100;https://www.santaclaraca.gov/services/emergency-services/warming-centers
1978;Gender Health Center - Harm Reduction;2020 29th St;95817;(916) 455-2391;https://www.genderhealthcenter.org/aboutghc
1979;The Shower of Hope - Boys and Girls Club Pasadena;2020 N Fair Oaks Ave;91103;;https://theshowerofhope.org/resources/
1987;Central Star Behavioral Health;2020 Standiford Ave;95350;(209) 702-0139;https://www.starsinc.com/
1991;LifeLong - Brookside Dental Care;2023 Vale Rd;94806;(510) 231-9814;https://lifelongMedi-Cal.org
1993;Kaiser Permanente - Wound and Ostomy Clinic;2025 Morse Ave;95825;(916) 973-5000;https://thrive.kaiserpermanente.org/care-near-you/northern-california/northvalley/locations/sacramento-Medi-Cal-center/
1997;AKUA Mind & Body - Mental Health & Drug Addiction Treatment;20271 SW Birch St;92660;(888) 834-2582;https://www.akuamindbody.com/
2001;Star Dental;2030 Douglas Blvd;95661;(916) 963-8769;https://www.sonnyafshar.com/our-practice/
2002;Sutter Health - Sutter Place Care Center;2030 Sutter Pl;95616;(530) 750-5895;https://www.sutterhealth.org/find-doctor/city/davis/endocrinologists
2003;Helen's Agency;20335 Ventura Blvd;91364;(818) 881-2685;https://helensagency.com/
2004;Cherry Hill Detoxification Center;2035 Fairmont Dr;94578;(866) 866-7496;https://www.horizonservices.org/cherry-hill-detoxification
2006;Community Action Partnership of Riverside County;2038 Iowa Ave;92507;(951) 955-4900;https://www.capriverside.org/Portals/2/PDF/Cool/Sept2021/2021_Cool_Center_Directory.pdf?ver=2021-09-09-105139-163&timestamp=1631209902511
2023;Familias Unidas;205 39th St;94805;(510) 412-5930;http://www.familias-unidas.org/
2024;Ultimate Staffing Services;205 E River Pk Cir;93720;(559) 256-1940;www.ultimatestaffig.com
2027;Sutter Health - West Roseville Care Center - Dermatology;2050 Blue Oaks Blvd;95747;(916) 910-2470;https://www.sutterhealth.org/find-doctor/dr-lauren-p-keller?utm_source=yelp&utm_medium=social&utm_content=branded-url&utm_campaign=smf-yelp-doctors
2028;West Roseville Care Center - Internal Medicine;2050 Blue Oaks Blvd;95747;(916) 910-2400;https://www.sutterhealth.org/find-doctor/city/roseville/internal-medicine-doctors
2029;CVS Pharmacy - Store #4151 - Club Center Drive Location;2050 Club Center Dr;95835;(916) 928-6848;https://www.cvs.com/store-locator/cvs-pharmacy-address/2050+Club+Center+Drive-Sacramento-CA-95835/storeid=4151?WT.mc_id=LS_GOOGLE_FS_4151
2030;Walgreens Pharmacy;2050 Glenoaks Blvd;91340;(818) 741-1103;https://www.walgreens.com/findcare/services?ext=gmb
2035;Los Angeles County Department of Health Services;2051 Marengo St;90033;(323) 409-1000;https://dhs.lacounty.gov/
2041;CVS Pharmacy;206 N Azusa Ave;91722;(626) 331-9907;https://www.cvs.com/store-locator/cvs-pharmacy-address/206+North+Azusa+Avenue-Covina-CA-91722/storeid=9641?WT.mc_id=LS_GOOGLE_RX_9641
2043;Advance Staffing, Inc;2060 Walsh Ave;95050;(408) 205-6154;https://advance-staffing.com/
2044;Woodland Hills Rx Pharmacy;20631 Ventura Blvd;91364;(855) 876-3060;https://www.woodlandhillspharmacy.com/thank-you/
2047;Friendship Emergency Shelter;20652 Laguna Canyon Rd;92651;(949) 494-6928;https://www.friendshipshelter.org/
2048;Laguna Food Pantry;20652 Laguna Canyon Rd;92651;(949) 497-7121;https://www.lagunafoodpantry.org/
2054;Crisis Ministry - Church of the Valley;20700 Standing Rock Ave;92307;(760) 247-6494;http://frc.vesd.net/community_resources/emergency_food
2055;Church of the Valley;20700 Standing Rock Ave;92307;(760) 247-6494;https://www.victorvilleca.gov/services/homeless-outreach/homelessness-solutions/high-desert-homeless-community-resources/showers
2056;All American Detox Center;20706 Clarendon St;91367;(877) 741-9098;https://allamericandetox.com/
2058;Marque Urgent Care;2075 San Joaquin Hills Rd;92660;;https://marqueMedi-Cal.com/urgent-care/
2061;Humanity Showers;208 S Clementine St;92054;;https://www.humanityshowers.org/about
2062;Ontario Housing Agency;208 W Emporia St;91762;(909) 395-2006;https://www.ontarioca.gov
2063;El Proyecto Del Barrio - Winnetka Health Center;20800 Sherman Way;91306;(818) 883-2273;http://www.elproyecto.us/health-wellness/winnetka-center/
2064;CVS Pharmacy;20801 Ventura Fwy;91364;(818) 992-3386;https://www.cvs.com/store-locator/woodland-hills-ca-pharmacies/20801-ventura-blvd-woodland-hills-ca-91364/storeid=16091?WT.mc_id=LS_GOOGLE_RX_16091
2066;CVS Pharmacy - Store #9322 - Fair Oaks Blvd Location;2085 Fair Oaks Blvd;95825;(916) 929-9577;https://www.cvs.com/store-locator/cvs-pharmacy-address/2085+Fair+Oaks+Blvd+Bldg+2-Sacramento-CA-95825/storeid=9322?WT.mc_id=LS_GOOGLE_FS_9322
2067;Orchid Dental Group;2087 Arena Blvd;95834;(916) 928-4444;https://www.orchidentalgroup.com/
2072;Desert Manna;209 N First Ave;92311;;http://www.sbcounty.gov/Uploads/DBH/SBCHP/Announcements/EmergencyColdWeatherShelterGuide.pdf
2074;Safeway Pharmacy;2090 Harbison Dr;95687;(707) 452-7279;https://local.pharmacy.safeway.com/ca/vacaville/2090-harbison-dr.html
2076;Walgreens Pharmacy;20901 Devonshire St;91311;(818) 341-4339;https://www.walgreens.com/findcare/services?ext=gmb
2089;Emanate Health Wound Care;210 W San Bernardino Rd;91723;(626) 915-6261;http://emanatehealth.org
2092;C.O.R.E Medi-Cal Treatment;2100 Capitol Ave;95816;(916) 442-4985;http://www.coreMedi-Calclinic.com/
2093;C.O.R.E Medi-Cal Clinic;2100 Capitol Ave;95816;(916) 442-4985;http://www.coreMedi-Calclinic.com/
2104;Park Central Care;2100 Parkside Dr;94536;(510) 797-5300;https://healthy.kaiserpermanente.org
2105;Alexian Health Clinic - Medication Assisted Treatment;2101 Alexian Dr;95116;(480) 272-6577;https://bhsd.sccgov.org/information-resources/medication-assisted-treatment/clinic-hours-locations-mat
2107;Solano County Crisis Stabilization Services;2101 Courage Dr;94533;(707) 428-1131;https://www.solanocounty.com/depts/mhs/default.asp
2108;Adult Integrated Care Clinic - Fairfield;2101 Courage Dr;94533;(707) 784-2080;https://www.solanocounty.com/depts/mhs/service_locations/default.asp
2109;Children's Mental Health Services - Fairfield;2101 Courage Dr;94533;(707) 784-4900;https://www.solanocounty.com/depts/mhs/service_locations/default.asp
2110;ACT - Full Service Partnership;2101 Courage Dr;94533;(707) 784-2059;https://www.solanocounty.com/depts/mhs/service_locations/default.asp
2111;Solano County Mental Health - Counseling;2101 Courage Dr;94533;(707) 428-1138;https://www.solanocounty.com/depts/mhs/default.asp
2112;Solano County Breastfeeding Coalition - Breastfeeding;2101 Courage Dr;94533;;https://www.solanocounty.com/depts/ph/mch/coalitions/bfc/default.asp
2113;Fairfield Pediatric Primary Care;2101 Courage Dr;94533;(707) 784-2010;https://www.solanocounty.com/depts/ph/fhs/default.asp
2114;Fairfield Dental Care;2101 Courage Dr;94533;(707) 784-2120;https://www.solanocounty.com/depts/ph/fhs/default.asp
2115;Solano County Breastfeeding Coalition - Breastfeeding - Support Groups;2101 Courage Dr;94533;;https://www.solanocounty.com/depts/ph/mch/coalitions/bfc/default.asp
2116;Santa Ana Comprehensive Treatment Center;2101 E First St;92705;(714) 464-4874;https://www.southerncaliforniactc.com/
2117;Walgreens Pharmacy;2101 E Hatch Rd;95351;(209) 538-8268;https://www.walgreens.com/
2118;Tarzana Treatment Centers;2101 Magnolia Ave;90806;(888) 777-8565;https://www.tarzanatc.org/
2120;St. Bernardine Medical Center;2101 N Waterman Ave;92404;(909) 883-8711;https://www.dignityhealth.org/socal/locations/stbernardinemedical
2123;Pediatric Dentistry of West Sacramento;2101 Stone Blvd;95691;(916) 277-8055;https://westsacpediatricdentistry.com/
2124;River Bend Medical Associates, Inc - West Sacramento Location;2101 Stone Blvd;95691;(916) 371-4939;https://www.rbmafamilydocs.com/about-us/
2126;West Valley Psychological Clinic;21031 Ventura Blvd;91364;(818) 340-1210;https://westvalleycounseling.org/
2127;California Diversion Programs;21054 Sherman Way;91303;(818) 716-0188;http://www.cadip.com/Alcohol-Drug.html
2128;Southside Park Pool House;2107 6th St;95818;(916) 808-8011;http://www.cityofsacramento.org/
2133;Central Santa Rosa Library;211 E St;95404;(707) 308-3020;https://sonomalibrary.org/locations/central-santa-rosa-library
2134;Roseville Topsmiles;2110 Professional Dr;95661;(916) 352-0282;https://www.rosevilletopsmiles.com/
2135;The People Concern;2116 Arlington Ave;90018;(323) 334-9000;https://www.thepeopleconcern.org/
2139;Kaiser Permanente - Dermatology;2120 Professional Dr;95661;(916) 784-4010;https://thrive.kaiserpermanente.org/care-near-you/northern-california/northvalley/departments/dermatology/
2140;Woodland Hills Therapy;21208 Constanso St;91364;(818) 920-8106;https://www.woodlandhillstherapy.net/
2141;Orange County Neurology, Inc;2121 E Coast Hwy;92625;(949) 652-7301;https://neurospabrain.com
2142;AppleOne Employment Services;2121 N California Blvd;94596;;https://www.appleone.com
2144;Mission Valley Library;2123 Fenton Pkwy;92108;(858) 573-5007;https://www.sandiego.gov/public-library
2145;Delight Pharmacy;21230 Ventura Blvd;91364;(818) 456-4506;http://delightpharmacy.org/?utm_source=gmb&utm_medium=referral
2151;BreakThroughs Outpatient Treatment;2125 Wylie Dr;95355;(209) 529-1855;https://www.breakthroughsmodesto.com/index.html
2157;Turning Point Community Programs - Mental Health Urgent Care Clinic;2130 Stockton Blvd;95817;(916) 520-2460;https://www.tpcp.org/programs/urgent-care
2159;Golden Gate Staffing;2134 Coloumbus Pkwy;94510;(707) 747-1788;www.goldengatestaffing.com
2160;North Park Behavioral Health Center;2136 El Cajon Blvd;92104;(619) 515-2588;https://www.fhcsd.org/billing-and-insurance
2163;CVS Pharmacy - Store #9914 - Grass Valley Highway Location;2140 Grass Valley Hwy;95603;(530) 885-6084;https://www.cvs.com/store-locator/cvs-pharmacy-address/2140+Grass+Valley+Highway-Auburn-CA-95603/storeid=9914?WT.mc_id=LS_GOOGLE_FS_9914
2164;Bristol Hospice - Sacramento;2140 Professional Dr;95661;(916) 782-5511;http://bristolhospice-sacramento.com/services/hospice-care/
2165;CrossWord Christian Church;21401 Box Springs Rd;92557;(951) 275-5360;https://crosswordchurch.org/
2167;County Department of Public Social Services;21415 Plummer St;91311;(818) 701-8200;https://https://dpss.lacounty.gov/dpss.lacounty.gov/
2170;Ovitt Family Community Library;215 E C St;91764;(909) 395-2004;https://www.ontarioca.gov/Library
2180;Sacramento County Behavioral Health Services - Mental Health Treatment Center;2150 Stockton Blvd;95817;(916) 875-1000;https://dhs.saccounty.net/BHS/Pages/BHS-Home.aspx
2181;Department of Health Services - Mental Health Treatment Center;2150 Stockton Blvd;95817;(916) 875-1055;https://dhs.saccounty.net/
2184;SoroWellness Counseling Center;2152 Dupont Dr;92612;(424) 248-8328;https://sorowellness.com/
2185;Bicycle Health - Suboxone Clinic;2159 India St;92101;(619) 486-8592;https://www.bicyclehealth.com/suboxone-clinic/san-diego
2188;Hyperbaric Medicine & Wound Care - Walnut Creek;216 N Wiget Ln;94598;(925) 357-8834;https://www.hbowoundcarewc.com/
2189;Linda Vista Library;2160 Ulric St;92111;(858) 573-1399;https://www.sandiego.gov/public-library/locations/linda-vista-library
2190;Loaves and Fishes of Catholic Charities - Los Angeles;21600 Hart St;91303;(213) 251-3549;https://catholiccharitiesla.org/san-fernando-region/
2193;Ultimate Staffing Services;21650 Oxnard St;91367;(818) 347-3355;https://www.ultimatestaffing.com/about-us/locations/woodland-hills/
2195;Crestwood Treatment Center;2171 Mowry Ave;94538;(510) 793-8383;https://crestwoodbehavioralhealth.com
2196;CVS Pharmacy;21761 Lake Forest Dr;92630;(949) 855-8307;https://www.cvs.com/minuteclinic/virtual-care/telehealth-options?WT.mc_id=LS_CVSRX_GOOGLE_16064_get_online_care_button
2198;BHS - American Recovery Center;2180 W Valley Blvd;91768;(909) 865-2336;http://bhs-inc.org/medical-detoxification
2199;Feed My Sheep Ministries - 1st Assembly of God;21811 Ottawa Rd;92308;(760) 247-6488;http://frc.vesd.net/community_resources/emergency_food
2201;CVS Pharmacy;2191 N Tustin St;92865;(714) 283-4704;https://www.cvs.com/minuteclinic/virtual-care/telehealth-options?WT.mc_id=LS_CVSRX_GOOGLE_16064_get_online_care_button
2202;Rite Aid Pharmacy;21949 Ventura Blvd;91364;(818) 348-5542;https://www.riteaid.com/locations/ca/woodland-hills/21949-ventura-boulevard.html
2208;Dedicato Treatment Center;22 W Carter Ave;91024;(626) 921-0113;https://www.dedicatedtreatment.com/
2211;La Clinica North;220 Hospital Dr;94589;(707) 641-1900;https://laclinica.org/location/la-clinica-north-vallejo/
2216;Sacramento Community Clinic - Del Paso;2200 Del Paso Blvd;95815;(916) 924-7988;https://halocares.org/facilities/
2218;Express Employment Professionals;2200 Range Ave;95403;(707) 595-1781;https://www.expresspros.com/santarosaca/?utm_source=gmb&utm_medium=organic&utm_campaign=Qiigo
2220;Chirag R. Vaid, DDS;2201 Capitol Ave;95816;(916) 444-2957;https://www.chiragrvaiddds.com/
2222;Fairfield Adult Primary Care Center;2201 Courage Dr;94533;(707) 784-2010;https://www.solanocounty.com/depts/ph/fhs/default.asp
2223;Veterans Homeless Outreach;2201 Courage Dr;94533;(707) 344-3743;https://www.solanocounty.com/documents/Housing.pdf
2229;Volt Workforce Solutions;2201 Walnut Ave;94538;(510) 505-0560;https://staffing.volt.com
2233;Affordable Mobility/Medical;2204 W Capitol Ave;95691;(916) 572-0811;https://cheaperscooters.com/
2234;DaVita Dialysis Center - Kidney Care - West Elk;2208 Kausen Dr;95758;(916) 683-5992;https://www.davita.com/locations/ca/sacramento/7000-franklin-blvd--288
2240;Safer Alternatives Thru Networking and Education;2211 Del Paso Blvd;95815;(916) 397-2434;https://www.cleanneedles.org/
2248;Capital Nephrology Medical Group - Elk Grove Location;2218 Kausen Dr;95758;(916) 683-8774;https://www.cnmgonline.com/en/our-team
2258;Edison Clinic;222 W 39th Ave;94403;(650) 619-9125;https://www.1degree.org/opp/call-to-arrange-a-time-and-location-edison-clinic-san-mateo-ca
2261;Brent Scarborough Counseling Services;222 W Main St;92780;(714) 660-3164;https://brentscarbmft.com/counselingservices
2262;Spine & Nerve Diagnostic Center - Folsom Location;2220 E Bidwell St;95630;(916) 772-5325;https://spinenerve.com/
2263;La Vista Residential Treatment for Women;2220 Girard St;92583;(866) 751-8515;www.mfirecovery.com
2267;Woodland Hills Branch Library;22200 Ventura Blvd;91364;(818) 226-0017;https://www.lapl.org/branches/woodland-hills
2268;Harmony Place;22209 Dolorosa St;91367;(888) 789-4330;https://harmonyplace.com/
2269;Valley Recovery Center of California;2221 Fair Oaks Blvd;95825;(888) 991-9786;https://valleyrecovery.com/
2270;Valley Recovery Center of California;2221 Fair Oaks Blvd;95825;(888) 991-9786;https://valleyrecovery.com/
2271;UC Davis Health - Pediatric Heart Center;2221 Stockton Blvd;95817;(916) 734-3861;https://health.ucdavis.edu/medicalcenter/cliniclocations/specialtycare/surgerycardiac.html
2297;The Shower of Hope - MacArthur Park;2230 W 6th St;90057;;http://theshowerofhope.org/resources/
2301;Hopkins MD: Primary Care Practice & Aesthetics;2235 Douglas Blvd;95661;(916) 259-5787;https://www.hopkinsmd.com/provider/tom-hopkins-md
2302;Radius Physical + Sports Rehab;2235 Douglas Blvd;95661;;https://www.radiusclinic.com/
2303;CoWorx Staffing Agency;224 E Olive Ave;91502;(818) 861-7558;https://www.coworxstaffing.com/
2304;Bay Area Rescue Mission for Women;224 Macdonald Ave;94801;(510) 215-4860;https://www.homelessshelterdirectory.org/shelter/ca_bay-area-rescue-mission-women-and-family-shelter
2305;Woodside Healthcare Center;2240 Northrop Ave;95825;(916) 927-9300;https://woodsidehealthcare.com/
2306;Sutter Imaging Roseville PET;2241 Douglas Blvd;95661;(916) 878-3790;https://www.sutterhealth.org/find-location/facility/sutter-imaging-roseville-pet
2307;Select Staffing;22420 Cactus Ave;92553;(951) 842-3623;https://www.select.com/locations/moreno-valley-ca/80040
2308;Redeemer Church;22434 Nisqually Rd;92307;(760) 247-5891;http://frc.vesd.net/community_resources/emergency_food
2309;Redeemer Church;22434 Nisqually Rd;92308;(760) 247-5891;https://www.victorvilleca.gov/Home/Components/BusinessDirectory/BusinessDirectory/270/23?backlist=%2fservices%2fhomeless-outreach%2fhomelessness-solutions%2fhigh-desert-homeless-community-resources%2fshowers
2313;The Wound Care Center in East San Jose;225 N Jackson Ave;95116;(408) 272-6450;https://regionalmedicalsanjose.com/specialties/wound-care
2314;The Shower of Hope - Pasadena Knox Presbyterian;225 S Hill Ave;91106;;http://theshowerofhope.org/resources/
2316;Roseville Downtown Library;225 Taylor St;95678;(916) 774-5221;https://www.roseville.ca.us/cms/One.aspx?portalId=7964922&pageId=8918700
2318;Suncrest Hospice - Sacramento, CA;2250 Del Paso Rd;95834;(916) 928-0102;https://suncrestcare.com/
2320;Dr. Angsumarn Luecha, MD;2251 N Harbor Blvd;92835;(909) 860-1144;https://www.healthgrades.com/physician/dr-angsumarn-luecha-2p6wp
2321;Healthy Living Residential Program;22512 Garzota Dr;91350;(661) 536-5562;https://healthylivingtreatment.com/
2322;Haven House Addiction Treatment;2252 Hillsboro Ave;90034;(424) 258-6792;https://havenhouseaddictiontreatment.com/Medically assisted-treatment/
2323;Haven House Addiction Treatment;2252 Hillsboro Ave;90034;(424) 258-6792;https://havenhouseaddictiontreatment.com/Medi-Cally-assisted-treatment/
2326;REVIVE Detox;22560 Lassen St;91311;(657) 286-7638;https://goldenroadrecovery.com/
2329;UC Davis Medical Group - Roseville, Douglas Blvd;2261 Douglas Blvd;95661;(916) 783-7109;https://health.ucdavis.edu/team/search/787/rosemary-hallett---internal-medicine---rheumatology--allergy-and-clinical-immunology-roseville
2330;Dr. Philina Lamb, MD - UC Davis Health;2261 Douglas Blvd;95661;(916) 783-7109;https://physicians.ucdavis.edu/medicalcenter/details/943/philina-lamb-dermatology-roseville-sacramento
2331;UC Davis Health - Roseville Location;2261 Douglas Blvd;95661;(916) 783-7109;https://health.ucdavis.edu/medicalcenter/cliniclocations/primarycare/roseville_2261.html
2332;UC Davis Health Eye Center - Roseville Satellite Office;2261 Douglas Blvd;95661;(916) 771-0251;https://health.ucdavis.edu/eyecenter/map_directions/index.html
2334;Sonoma County Job Link;2264 Green Hill Rd;95472;(707) 565-5550;https://sonomawib.org/
2335;Azure Recovery Center;2264 Green Hill Rd;95472;(844) 799-8006;https://www.azureacres.com/admissions/assessment/addiction/
2337;Moreno Valley Family Health Center;22675 Alessadri Blvd;92553;(951) 571-2350;https://rivco-familycarecenters.org
2338;Walgreens - Store #4559;227 Shoreline Hwy;94941;(415) 380-8402;https://www.walgreens.com/locator/walgreens-227+shoreline+hwy-mill+valley-ca-94941/id=4559
2341;Colton Comprehensive Center;2275 E Cooley Dr;92324;(909) 370-1777;https://luxuryrehabcenters.org
2342;Inland Empire Comprehensive Treatment Center;2275 E Cooley Dr;92324;;https://www.inlandempirectc.com/location/colton/
2343;Colton Comprehensive Treatment Center;2275 E Cooley Dr;92324;(909) 679-5048;https://www.inlandempirectc.com/location/riverside/?utm_source=Google&utm_medium=organic&utm_campaign=listing&utm_term=brand
2346;Andrea Willey, MD;2277 Fair Oaks Blvd;95825;(916) 922-7546;https://andreawilleymd.com/
2349;Lake Forest Services & Lake Forest Hospice;22772 Centre Dr;92630;(949) 305-0057;https://www.lakeforestservices.com
2350;Sierra Oaks Dental;2280 Fair Oaks Blvd;95825;(916) 481-2000;https://www.sierraoaksdental.com/
2351;St. Vincent De Paul Society;2280 San Pablo Ave;94612;(510) 638-7600;https://www.svdp-alameda.org
2367;Omega Center for Mental Health;22900 Ventura Blvd;91364;(818) 224-3320;http://www.lialistens.com/index.html
2368;Housing Authority - County of Alameda;22941 Atherton St;94541;(510) 538-8876;https://www.haca.net/
2369;Coast Personnel Services, Inc;2295 De La Cruz Blvd;95050;(408) 653-2100;https://www.coastjobs.com/
2370;Seasons Hospice & Palliative Care of California - Sacramento;2295 Gateway Oaks Dr;95833;(855) 465-6845;https://www.seasons.org/about/locations/california-sacramento/
2372;Bay Area Community Health - Mowry I Health Clinic;2299 Mowry Ave;94538;(510) 713-6685;https://bach.health/
2373;Mark Schiller, MD;2299 Post St;94115;(415) 945-9870;https://www.mindtherapyclinic.com/
2377;Dixon Library;230 N 1st St;95620;(866) 572-7587;https://solanolibrary.com/hours-and-locations/dixon-library/
2380;River City Food Bank;2300 Edison Ave;95821;(916) 446-2627;https://rivercityfoodbank.org/
2385;CVS Pharmacy;2300 Park Ave;92782;(714) 361-2101;https://www.cvs.com/minuteclinic/virtual-care/telehealth-options?WT.mc_id=LS_CVSRX_GOOGLE_16064_get_online_care_button
2390;Mission Neighborhood Access Point;2301 Mission St;94110;(415) 282-3334;https://medasf.org/programs/workforce-development-program/
2393;Family Promise;2301 Woodland Ave;95358;(209) 549-9454;http://www.modestofamilypromise.org/
2394;Bridge to Home - Winter Shelter;23031 Drayton St;91350;(661) 388-3002;http://www.btohome.org/
2395;Iris Healing Retreat;23033 Ostronic Dr;91367;(844) 663-4747;https://irishealing.com/
2396;Harmony Place;23041 Hatteras St;91367;(888) 789-4330;https://harmonyplace.com/
2398;Daisy L. Torres, PAC - Moreno Valley Clinica Media Familiar;23080 Alessandro Blvd;92553;(951) 697-7866;https://morenovalleyclinicamedica.com
2399;Riverside County Workforce Development Center Youth Opportunity Center;23080 Alessandro Blvd;92553;(951) 653-1311;https://mv-youth-opportunity-center.business.site/
2400;Inland Psychiatric Medical Group;23100 Eucalyptus Ave;92553;(951) 243-6455;https://www.inlandpsych.com/services/
2401;Age Well Senior Services, Inc;23101 Lake Center Dr;92630;(949) 855-9766;https://cityofmissionviejo.org/sites/default/files/Senior%20Transportation%20Resources.pdf
2403;Contra Costa County - East County Adult Mental Health Services;2311 Loveridge Rd;94565;(800) 846-1652;https://cchealth.org/aod/
2407;Creative Care;23140 Gonzales Dr;91367;(855) 904-4306;https://www.creativecareinc.com/frequently-asked-questions/
2408;Memorial Care;23141 Moulton Pkwy;92653;(949) 916-9100;https://www.memorialcare.org/services/diabetes-care
2409;Bunch Mental Health Services;23147 Ventura Blvd;91364;(818) 987-7707;https://bmhsinc.com/
2414;Snelling Staffing Services;2316 Orchard Pkwy;95377;(209) 839-8715;https://www.snelling.com/
2416;Aalto Center for Hyperbaric Medicine;23164 Ventura Blvd;91364;(818) 629-8988;https://www.aaltohyperbaric.com/what-is-hbot/
2422;New Bridge Foundation;2323 Hearst Ave;94709;(866) 772-8491;https://www.newbridgefoundation.org/
2423;New Bridge Foundation - Bridge One;2323 Hearst Ave;94709;(866) 772-6534;https://www.newbridgefoundation.org/
2425;Discovery Mood & Anxiety Program;2324 Windy Springs Ln;94513;(925) 961-3489;https://discoverymood.com/covid-19/?utm_source=google&utm_medium=local
2430;Turning Point - Transitional Support Services;2333 Courage Dr;94533;(707) 207-7075;https://www.tpcp.org/programs/tss-solano/
2432;Antioch Health Center - Community Produce Program;2335 Country Hills Dr;94509;(925) 608-8500;https://www.foodpantries.org
2434;UC Davis Health - Department of Cardiothoracic Surgery;2335 Stockton Blvd;95817;(916) 734-2680;https://health.ucdavis.edu/surgery/specialties/cardio/appointments/
2436;SVS GRP - Silicon Valley Staffing;2336 Harrison St;94612;(510) 923-9898;http://svsjoBlue Shield.com
2438;St. James Syringe Access;234 Eddy St;94102;(415) 312-6306;https://www.stjamesinfirmary.org/wordpress/
2441;Partners Personnel West Covina;2343 S Azusa Ave;91792;(626) 977-1122;https://www.partnerspersonnel.com/
2442;A-Z Transportation, LLC;2344 Arden Way;95825;(916) 550-5326;https://azlogistics.net/
2443;Kaiser Permanente - Dermatology - Fair Oaks Boulevard Medical Offices;2345 Fair Oaks Blvd;95825;(916) 631-3010;https://thrive.kaiserpermanente.org/care-near-you/northern-california/northvalley/departments/dermatology/
2444;Path;2346 Cotner Ave;90064;(323) 644-2200;https://epath.org/regions/greater-los-angeles/
2446;Premier Talent Partners;235 Montgomery St;94104;(415) 362-2211;https://www.premiertalentpartners.com/
2448;Alcohol Addiction Recovery Place;235 Westlake Ctr;94015;(650) 731-7052;https://recoveryaddictioncenter.com/
2450;Sierra Foothills Oral & Maxillofacial Surgery;2350 Professional Dr;95661;(916) 786-3930;https://www.sierrafoothillsoralsurgery.com/
2455;Moreno Valley Community Health;23520 Cactus Ave;92553;(951) 867-3900;https://rivco-familycarecenters.org
2456;Wic Concord;2355 Stanwell Cir;94520;(925) 646-5370;https://foodbankccs.org
2457;Cleansing Hope Shower Shuttle;236 S Santa Cruz Ave;95354;(209) 496-4894;https://www.showershuttle.org/contact/
2459;Platt Branch Library;23600 Victory Blvd;91367;(818) 340-9386;https://www.lapl.org/branches/platt
2464;Health Plus Home Care Medical Supplies;23665 Moulton Pkwy;92653;(949) 859-4440;https://www.eltoropharmacy.com/aboutus
2465;Richmond Emergency Food Pantry;2369 Barrett Ave;94804;(510) 235-9732;https://www.refp.org/food.html
2466;DiMariano Family Dentistry;2370 E Bidwell St;95630;(916) 983-6655;https://www.myfolsomdentist.com/
2467;CVS Pharmacy;2370 S Azusa Ave;91792;(626) 667-5401;https://www.cvs.com/store-locator/cvs-pharmacy-address/2370+S+Azusa+Ave-West+Covina-CA-91792/storeid=17230?WT.mc_id=LS_GOOGLE_RX_17230
2468;River Community;23701 E Fork Rd;91702;(626) 910-1202;https://socialmodelrecovery.org/river-community
2473;Spine & Nerve Diagnostic Center - Elk Grove Location;2372 Maritime Dr;95758;(916) 478-0112;https://spinenerve.com/
2475;Oasis Community Church;23750 Alessandro Blvd;92553;(951) 653-0737;https://www.oasischurchmv.com/
2476;Bridge to Home;23752 Newhall Ave;91321;(661) 254-4663;http://www.btohome.com/
2478;A New Creation - Child, Individual, and Family Counseling Treatment Center;23800 Sunnymead Blvd;92553;(310) 420-5341;https://www.anewcreationtherapy.com/
2479;Nueva Vida Alcoholics Anonymous;23890 Alessandro Blvd;92553;(951) 653-9312;https://aainlandempire.org
2480;Fair Housing Council of Riverside County - Moreno Valley;23890 Alessandro Blvd;92553;(951) 653-8314;https://fairhousing.net
2481;His House Rehab;239 W 9th St;91786;(909) 340-4276;https://hishouserehab.com/
2483;Clinica Medica California;23900 Ironwood Ave;92557;(951) 697-7866;https://rivco-familycarecenters.org
2484;New Creation Detox & Treatment Center;23950 Prado Ln;92324;(909) 639-3239;https://newcreationtreatment.com/
2485;Kamran Staffing, Inc;23962 Alessandro Blvd;92553;(951) 656-0444;http://kamranstaffing.com/office-locations/moreno-valley/
2486;Valley Oral and Maxillofacial Surgery;2398 Fair Oaks Blvd;95825;(916) 283-8818;https://www.valleyomfs.com/
2489;Mission Neighborhood Health Center - Shotwill Clinic;240 Shotwell St;94110;(415) 552-3870;https://www.mnhc.org/about-us/
2500;AACI Adolescent Substance Abuse Program;2400 Moorpark Ave;95128;;https://aaci.org/
2505;Fremont Main Library;2400 Stevenson Blvd;94538;(510) 745-1400;https://aclibrary.org/locations/FRM
2510;Safeway Pharmacy;2401 Waterman Dr;94534;(707) 427-5642;https://local.pharmacy.safeway.com/ca/fairfield/2401-waterman-dr.html
2514;Center Point - DAAC;2403 Professional Dr;95403;(707) 544-3295;https://www.daacinfo.org/medication-assisted-treatment/
2515;Redwood Empire Addictions Program - DAAC;2403 Professional Dr;95403;(707) 526-2999;https://www.daacinfo.org/medication-assisted-treatment/
2516;Turning Point Orenda Detox Program;2403 Professional Dr;95403;(707) 565-7460;https://www.daacinfo.org/detoxification/
2519;Douglas A. Gedestad, DMD;2409 L St;95816;(855) 402-7774;https://www.sacramentocadentalcare.com/
2525;Alameda County Social Services;24100 Amador St;94544;(510) 670-6000;https://www.alamedacountysocialservices.org/index.page
2528;Yamamoto and Lee Family Dentistry;2416 Professional Dr;95661;(916) 783-5241;https://rosevillefamilydentist.com/
2531;Douglas Dental & Orthodontics;2424 Professional Dr;95661;(916) 783-4888;https://www.douglas.dental/
2536;Imani Clinic - UC Davis Student-Run Clinic;2425 Alhambra Blvd;95817;(916) 475-9582;https://www.imaniclinic.org/our-services
2537;WellSpace Health - Alhambra Community Health Center & Immediate Care;2425 Alhambra Blvd;95817;(916) 737-5555;https://www.wellspacehealth.org/location/alhambra-community-health-center
2538;WellSpace Health - Alhambra Community Health Center & Immediate Care;2425 Alhambra Blvd;95817;(916) 737-5555;https://www.wellspacehealth.org/location/alhambra-community-health-center
2539;WellSpace Health - Alhambra Community Health Center & Immediate Care;2425 Alhambra Blvd;95817;(916) 313-8433;https://www.wellspacehealth.org/location/alhambra-community-health-center
2540;County of Santa Clara - Behavorial Health Services - Central Valley Clinic;2425 Enborg Ln;95128;(408) 885-5400;https://bhsd.sccgov.org/
2548;Office of Dr. Arden Lon Kwong, DDS;2430 L St;95816;(916) 441-1057;https://www.vitals.com/dentists/Dr_Arden_Kwong
2549;Central Valley Low Income Housing Corp;2431 W March Ln;95207;(209) 472-7200;http://www.cvlihc.org/
2550;Begin Again Suboxone Clinic - Santa Clara, CA;2433 De La Cruz Blvd;95050;(669) 202-9474;https://drug-rehab-alcohol-detox-begin-again-santa-clara-ca.business.site/?utm_source=gmb&utm_medium=referral
2551;WellSpace Health - Arden-Arcade Community Health Center;2433 Marconi Ave;95821;(916) 737-5555;https://www.wellspacehealth.org/location/arden-arcade-community-health-center
2556;My Tooth Spa Dentistry and Orthodontics;2436 Professional Dr;95661;(916) 836-0062;https://mytoothspa.com/
2559;Saddleback Medical Group, Inc;Health Center Dr;92653;(949) 334-8200;http://www.saddlebackMedi-Calgroup.com/Home/InfectiousDisease.aspx
2560;Saddleback Medical Group, Inc;Health Center Dr;92653;(949) 334-8200;http://www.saddlebackmedicalgroup.com/Home/InfectiousDisease.aspx
2561;Thomas T. Vovan, MD, Inc;24411 Health Center Dr;92653;(949) 521-7163;https://www.memorialcare.org/providers/thomas-vovan
2562;Sacramento Public Library - Arcade;2443 Marconi Ave;95821;(916) 264-2920;https://www.saclibrary.org/Locations/Arcade
2565;Saddleback Memorial Medical Center - Transportation;24451 Health Center Dr;92653;(949) 452-7255;https://cityofmissionviejo.org/sites/default/files/Senior%20Transportation%20Resources.pdf
2566;SAY - Young Adult Center;2447 Summerfield Rd;95405;(707) 544-3299;https://www.saysc.org/housing/
2568;New Start Recovery Solutions;2449 Pacheco St;94520;(866) 303-6275;https://www.newstartrecoverysolutions.com/
2570;Aerotek;2450 Martin Rd;94534;(707) 430-0854;https://www.aerotek.com/en/locations/united-states/california/fairfield?ecid=ls_aero_mozbizlist_160802_123480&location=Fairfield%2CCalifornia
2571;East Bay Innovations;2450 Washington Ave;94577;(510) 618-1580;https://eastbayinnovations.org
2572;CVS Pharmacy;24500 Alicia Pkwy;92691;(949) 583-1278;https://www.cvs.com/store-locator/mission-viejo-ca-pharmacies/24500-alicia-pkwy-mission-viejo-ca-92691/storeid=16098?WT.mc_id=LS_GOOGLE_RX_16098
2575;San Jose Compounding Pharmacy;2453 Forest Ave;95128;(408) 296-5015;https://www.sjcpharmacy.com/
